{"type": "FeatureCollection", "features": [{"type": "Feature", "geometry": {"type": "Point", "coordinates": [35.0, 46.0]}, "properties": {"id": "little-tartary", "name": "Little Tartary", "type": "label", "scale": "label", "coord_basis": "anchor", "record_count": 3, "records": ["M008", "M010", "M084"]}}, {"type": "Feature", "geometry": {"type": "Point", "coordinates": [112.0, 46.0]}, "properties": {"id": "chinese-tartary", "name": "Chinese Tartary", "type": "label", "scale": "label", "coord_basis": "anchor", "record_count": 10, "records": ["M015", "M052", "M053", "M054", "M055", "M059", "M064", "M072", "W087", "W272"]}}, {"type": "Feature", "geometry": {"type": "Point", "coordinates": [64.0, 44.0]}, "properties": {"id": "independent-tartary", "name": "Independent Tartary", "type": "label", "scale": "label", "coord_basis": "anchor", "record_count": 8, "records": ["M053", "M055", "M058", "M060", "M064", "M070", "M072", "M073"]}}, {"type": "Feature", "geometry": {"type": "Point", "coordinates": [90.0, 60.0]}, "properties": {"id": "muscovite-tartary", "name": "Muscovite Tartary", "type": "label", "scale": "label", "coord_basis": "anchor", "record_count": 2, "records": ["M053", "M054"]}}, {"type": "Feature", "geometry": {"type": "Point", "coordinates": [128.0, 45.0]}, "properties": {"id": "eastern-tartary", "name": "Eastern Tartary", "type": "label", "scale": "label", "coord_basis": "anchor", "record_count": 3, "records": ["W069", "W248", "W299"]}}, {"type": "Feature", "geometry": {"type": "Point", "coordinates": [36.0, 47.0]}, "properties": {"id": "scythia", "name": "Scythia", "type": "historical-region", "scale": "regional", "coord_basis": "approx", "record_count": 6, "records": ["M032", "M036", "M038", "M043", "W081", "W101"]}}, {"type": "Feature", "geometry": {"type": "Point", "coordinates": [44.0, 47.5]}, "properties": {"id": "sarmatia-asiatica", "name": "Asiatic Sarmatia", "type": "historical-region", "scale": "regional", "coord_basis": "approx", "record_count": 2, "records": ["M031", "W235"]}}, {"type": "Feature", "geometry": {"type": "Point", "coordinates": [28.0, 52.0]}, "properties": {"id": "sarmatia-europaea", "name": "European Sarmatia", "type": "historical-region", "scale": "regional", "coord_basis": "approx", "record_count": 1, "records": ["W235"]}}, {"type": "Feature", "geometry": {"type": "Point", "coordinates": [115.0, 38.0]}, "properties": {"id": "cathay", "name": "Cathay", "type": "label", "scale": "label", "coord_basis": "anchor", "record_count": 22, "records": ["M002", "M027", "M037", "M039", "M040", "M041", "M042", "M047", "M049", "M052", "M054", "M079", "M085", "M090", "M096", "W042", "W211", "W225", "W229", "W234", "W238", "W245"]}}, {"type": "Feature", "geometry": {"type": "Point", "coordinates": [115.0, 27.0]}, "properties": {"id": "mangi", "name": "Mangi", "type": "label", "scale": "label", "coord_basis": "anchor", "record_count": 6, "records": ["M040", "M047", "M079", "M085", "M090", "W219"]}}, {"type": "Feature", "geometry": {"type": "Point", "coordinates": [111.7, 40.8]}, "properties": {"id": "tenduc", "name": "Tenduc", "type": "historical-region", "scale": "regional", "coord_basis": "approx", "record_count": 1, "records": ["M085"]}}, {"type": "Feature", "geometry": {"type": "Point", "coordinates": [47, 37]}, "properties": {"id": "media", "name": "Media", "type": "historical-region", "scale": "regional", "coord_basis": "wikipedia", "record_count": 1, "records": ["M046"]}}, {"type": "Feature", "geometry": {"type": "Point", "coordinates": [66.8989, 36.7581]}, "properties": {"id": "bactria", "name": "Bactria", "type": "historical-region", "scale": "regional", "coord_basis": "wikipedia", "record_count": 1, "records": ["M031"]}}, {"type": "Feature", "geometry": {"type": "Point", "coordinates": [69.4, 40.4]}, "properties": {"id": "sogdiana", "name": "Sogdiana", "type": "historical-region", "scale": "regional", "coord_basis": "wikipedia", "record_count": 2, "records": ["M031", "W106"]}}, {"type": "Feature", "geometry": {"type": "Point", "coordinates": [62.2, 34.3]}, "properties": {"id": "aria", "name": "Aria", "type": "historical-region", "scale": "regional", "coord_basis": "approx", "record_count": 1, "records": ["M045"]}}, {"type": "Feature", "geometry": {"type": "Point", "coordinates": [62.0, 31.0]}, "properties": {"id": "drangiana", "name": "Drangiana", "type": "historical-region", "scale": "regional", "coord_basis": "approx", "record_count": 1, "records": ["M045"]}}, {"type": "Feature", "geometry": {"type": "Point", "coordinates": [63.0, 27.0]}, "properties": {"id": "gedrosia", "name": "Gedrosia", "type": "historical-region", "scale": "regional", "coord_basis": "approx", "record_count": 1, "records": ["M045"]}}, {"type": "Feature", "geometry": {"type": "Point", "coordinates": [55.0, 37.0]}, "properties": {"id": "hyrcania", "name": "Hyrcania", "type": "historical-region", "scale": "regional", "coord_basis": "approx", "record_count": 1, "records": ["M038"]}}, {"type": "Feature", "geometry": {"type": "Point", "coordinates": [75.0, 42.0]}, "properties": {"id": "sacae", "name": "Saka lands", "type": "historical-region", "scale": "regional", "coord_basis": "approx", "record_count": 1, "records": ["M031"]}}, {"type": "Feature", "geometry": {"type": "Point", "coordinates": [47.5, 40.9]}, "properties": {"id": "albania-caucasica", "name": "Caucasian Albania", "type": "historical-region", "scale": "regional", "coord_basis": "approx", "record_count": 2, "records": ["M041", "W198"]}}, {"type": "Feature", "geometry": {"type": "Point", "coordinates": [102.85, 47.21]}, "properties": {"id": "mongol-empire", "name": "Mongol Empire", "type": "polity", "scale": "regional", "coord_basis": "capital", "record_count": 6, "records": ["M039", "M078", "M090", "W038", "W041", "W112"]}}, {"type": "Feature", "geometry": {"type": "Point", "coordinates": [47.8, 46.6]}, "properties": {"id": "golden-horde", "name": "Golden Horde", "type": "polity", "scale": "regional", "coord_basis": "capital", "record_count": 11, "records": ["M078", "W073", "W119", "W162", "W163", "W185", "W186", "W200", "W215", "W218", "W260"]}}, {"type": "Feature", "geometry": {"type": "Point", "coordinates": [46.3, 38.07]}, "properties": {"id": "ilkhanate", "name": "Ilkhanate", "type": "polity", "scale": "regional", "coord_basis": "capital", "record_count": 3, "records": ["M078", "W228", "W262"]}}, {"type": "Feature", "geometry": {"type": "Point", "coordinates": [80.4, 44.05]}, "properties": {"id": "chagatai", "name": "Chagatai Khanate", "type": "polity", "scale": "regional", "coord_basis": "capital", "record_count": 3, "records": ["M052", "M078", "W298"]}}, {"type": "Feature", "geometry": {"type": "Point", "coordinates": [116.39, 39.915]}, "properties": {"id": "yuan", "name": "Yuan dynasty", "type": "polity", "scale": "regional", "coord_basis": "capital (wikipedia)", "record_count": 4, "records": ["M078", "W129", "W156", "W260"]}}, {"type": "Feature", "geometry": {"type": "Point", "coordinates": [116.39, 39.92]}, "properties": {"id": "qing", "name": "Qing empire", "type": "polity", "scale": "regional", "coord_basis": "capital (wikipedia)", "record_count": 19, "records": ["M060", "M061", "M062", "M063", "M070", "M074", "M077", "M109", "M110", "M111", "W070", "W100", "W127", "W139", "W143", "W239", "W256", "W292", "W293"]}}, {"type": "Feature", "geometry": {"type": "Point", "coordinates": [112.0, 40.5]}, "properties": {"id": "ming-frontier", "name": "Ming northern frontier", "type": "historical-region", "scale": "regional", "coord_basis": "approx", "record_count": 5, "records": ["M105", "M106", "W134", "W158", "W243"]}}, {"type": "Feature", "geometry": {"type": "Point", "coordinates": [66.97, 39.65]}, "properties": {"id": "timurid", "name": "Timurid Empire", "type": "polity", "scale": "regional", "coord_basis": "capital", "record_count": 3, "records": ["M119", "W072", "W095"]}}, {"type": "Feature", "geometry": {"type": "Point", "coordinates": [78.02, 27.18]}, "properties": {"id": "mughal", "name": "Mughal Empire", "type": "polity", "scale": "regional", "coord_basis": "capital", "record_count": 4, "records": ["M048", "M050", "M051", "M080"]}}, {"type": "Feature", "geometry": {"type": "Point", "coordinates": [30.31, 59.94]}, "properties": {"id": "russian-empire", "name": "Russian Empire", "type": "polity", "scale": "regional", "coord_basis": "capital", "record_count": 11, "records": ["M055", "M056", "M080", "M084", "M100", "M101", "M110", "M111", "M115", "W135", "W282"]}}, {"type": "Feature", "geometry": {"type": "Point", "coordinates": [37.62, 55.76]}, "properties": {"id": "muscovy", "name": "Muscovy", "type": "polity", "scale": "regional", "coord_basis": "capital", "record_count": 22, "records": ["M044", "M046", "M081", "M082", "M099", "M102", "M103", "M118", "W035", "W036", "W048", "W167", "W213", "W231", "W232", "W233", "W235", "W236", "W238", "W249", "W251", "W273"]}}, {"type": "Feature", "geometry": {"type": "Point", "coordinates": [40.0, 56.0]}, "properties": {"id": "russia", "name": "Russia", "type": "region", "scale": "regional", "coord_basis": "approx", "record_count": 31, "records": ["M010", "M027", "M033", "M044", "M046", "M050", "M081", "M082", "M109", "W004", "W012", "W013", "W021", "W022", "W034", "W044", "W063", "W064", "W065", "W084", "W085", "W086", "W121", "W127", "W136", "W139", "W152", "W161", "W224", "W275", "W297"]}}, {"type": "Feature", "geometry": {"type": "Point", "coordinates": [30.525, 50.45]}, "properties": {"id": "rus", "name": "Kievan Rus'", "type": "polity", "scale": "regional", "coord_basis": "capital (wikipedia)", "record_count": 9, "records": ["M095", "W110", "W162", "W164", "W165", "W178", "W185", "W225", "W227"]}}, {"type": "Feature", "geometry": {"type": "Point", "coordinates": [47.5, 46.5]}, "properties": {"id": "khazaria", "name": "Khazar Khaganate", "type": "polity", "scale": "regional", "coord_basis": "approx", "record_count": 4, "records": ["W201", "W202", "W203", "W205"]}}, {"type": "Feature", "geometry": {"type": "Point", "coordinates": [49.05, 54.97]}, "properties": {"id": "volga-bulgaria", "name": "Volga Bulgaria", "type": "polity", "scale": "regional", "coord_basis": "capital", "record_count": 6, "records": ["M044", "M095", "M096", "W110", "W217", "W219"]}}, {"type": "Feature", "geometry": {"type": "Point", "coordinates": [74.0, 41.5]}, "properties": {"id": "qarakhanid", "name": "Kara-Khanid Khanate", "type": "polity", "scale": "regional", "coord_basis": "approx", "record_count": 1, "records": ["W220"]}}, {"type": "Feature", "geometry": {"type": "Point", "coordinates": [89.53, 42.85]}, "properties": {"id": "uyghur", "name": "Uyghur lands", "type": "historical-region", "scale": "regional", "coord_basis": "approx", "record_count": 3, "records": ["W109", "W203", "W229"]}}, {"type": "Feature", "geometry": {"type": "Point", "coordinates": [106.27, 38.47]}, "properties": {"id": "western-xia", "name": "Tangut (Western Xia)", "type": "historical-region", "scale": "regional", "coord_basis": "capital", "record_count": 3, "records": ["M085", "M090", "W148"]}}, {"type": "Feature", "geometry": {"type": "Point", "coordinates": [71.65, 52.896]}, "properties": {"id": "kazakh-steppe", "name": "Kazakh steppe", "type": "steppe", "scale": "regional", "coord_basis": "wikipedia", "record_count": 29, "records": ["M046", "M056", "M057", "M058", "M061", "M065", "M071", "M072", "M073", "M076", "M081", "M082", "M084", "M099", "M100", "M101", "M109", "W026", "W175", "W181", "W182", "W190", "W191", "W196", "W216", "W281", "W282", "W286", "W294"]}}, {"type": "Feature", "geometry": {"type": "Point", "coordinates": [50.0, 47.5]}, "properties": {"id": "nogai-steppe", "name": "Nogai steppe", "type": "steppe", "scale": "regional", "coord_basis": "approx", "record_count": 9, "records": ["M046", "M081", "M082", "W165", "W166", "W216", "W231", "W235", "W237"]}}, {"type": "Feature", "geometry": {"type": "Point", "coordinates": [55.0, 48.0]}, "properties": {"id": "dasht-i-qipchaq", "name": "Qipchaq steppe", "type": "steppe", "scale": "regional", "coord_basis": "approx", "record_count": 17, "records": ["M044", "M095", "M096", "W187", "W188", "W189", "W195", "W204", "W206", "W207", "W208", "W211", "W215", "W217", "W229", "W240", "W297"]}}, {"type": "Feature", "geometry": {"type": "Point", "coordinates": [36.0, 47.0]}, "properties": {"id": "pontic-steppe", "name": "Pontic steppe", "type": "steppe", "scale": "regional", "coord_basis": "approx", "record_count": 18, "records": ["M008", "W003", "W005", "W032", "W034", "W043", "W078", "W082", "W108", "W163", "W202", "W232", "W237", "W252", "W255", "W268", "W271", "W289"]}}, {"type": "Feature", "geometry": {"type": "Point", "coordinates": [45.5, 46.5]}, "properties": {"id": "kalmyk-steppe", "name": "Kalmyk steppe (lower Volga)", "type": "steppe", "scale": "regional", "coord_basis": "approx", "record_count": 15, "records": ["M056", "M084", "W016", "W033", "W068", "W128", "W210", "W258", "W276", "W278", "W279", "W280", "W281", "W282", "W290"]}}, {"type": "Feature", "geometry": {"type": "Point", "coordinates": [86.0, 44.5]}, "properties": {"id": "dzungaria", "name": "Dzungaria", "type": "historical-region", "scale": "regional", "coord_basis": "approx", "record_count": 28, "records": ["M046", "M052", "M057", "M080", "M081", "M082", "M083", "M088", "M089", "M099", "W126", "W128", "W131", "W135", "W137", "W138", "W142", "W151", "W171", "W174", "W179", "W258", "W265", "W280", "W290", "W292", "W296", "W302"]}}, {"type": "Feature", "geometry": {"type": "Point", "coordinates": [80.0, 43.0]}, "properties": {"id": "moghulistan", "name": "Moghulistan", "type": "historical-region", "scale": "regional", "coord_basis": "approx", "record_count": 10, "records": ["M054", "W045", "W187", "W188", "W189", "W190", "W193", "W194", "W195", "W206"]}}, {"type": "Feature", "geometry": {"type": "Point", "coordinates": [64.43333333, 39.76666667]}, "properties": {"id": "bukharia", "name": "Great Bukharia", "type": "historical-region", "scale": "regional", "coord_basis": "capital (wikipedia)", "record_count": 2, "records": ["M080", "M083"]}}, {"type": "Feature", "geometry": {"type": "Point", "coordinates": [28.98, 41.01]}, "properties": {"id": "ottoman-empire", "name": "Ottoman Empire", "type": "polity", "scale": "regional", "coord_basis": "capital", "record_count": 3, "records": ["W053", "W212", "W222"]}}, {"type": "Feature", "geometry": {"type": "Point", "coordinates": [77.21, 28.61]}, "properties": {"id": "delhi-sultanate", "name": "Delhi Sultanate", "type": "polity", "scale": "regional", "coord_basis": "capital", "record_count": 1, "records": ["W200"]}}, {"type": "Feature", "geometry": {"type": "Point", "coordinates": [31.24, 30.04]}, "properties": {"id": "mamluk", "name": "Mamluk Sultanate", "type": "polity", "scale": "regional", "coord_basis": "capital", "record_count": 1, "records": ["W208"]}}, {"type": "Feature", "geometry": {"type": "Point", "coordinates": [24.96, 49.91]}, "properties": {"id": "galicia-volhynia", "name": "Galicia-Volhynia", "type": "polity", "scale": "regional", "coord_basis": "capital (wikipedia)", "record_count": 1, "records": ["W163"]}}, {"type": "Feature", "geometry": {"type": "Point", "coordinates": [35.0, 47.5]}, "properties": {"id": "cossack-lands", "name": "Cossack lands", "type": "historical-region", "scale": "regional", "coord_basis": "approx", "record_count": 1, "records": ["W078"]}}, {"type": "Feature", "geometry": {"type": "Point", "coordinates": [104.0, 47.0]}, "properties": {"id": "mongolia", "name": "Mongolia", "type": "region", "scale": "regional", "coord_basis": "approx", "record_count": 103, "records": ["M009", "M016", "M019", "M033", "M044", "M049", "M052", "M059", "M060", "M061", "M065", "M066", "M068", "M069", "M070", "M072", "M074", "M075", "M077", "M080", "M086", "M088", "M089", "M099", "M106", "M108", "M110", "M111", "M112", "M117", "M119", "W001", "W006", "W011", "W015", "W016", "W017", "W040", "W043", "W051", "W070", "W097", "W109", "W111", "W113", "W118", "W119", "W122", "W125", "W126", "W127", "W128", "W130", "W131", "W132", "W133", "W134", "W135", "W138", "W139", "W142", "W144", "W145", "W146", "W148", "W149", "W150", "W151", "W152", "W155", "W156", "W157", "W170", "W172", "W173", "W177", "W178", "W180", "W183", "W221", "W224", "W234", "W252", "W254", "W255", "W256", "W257", "W258", "W259", "W260", "W261", "W262", "W263", "W264", "W271", "W274", "W276", "W277", "W280", "W281", "W291", "W296", "W302"]}}, {"type": "Feature", "geometry": {"type": "Point", "coordinates": [113.0, 43.0]}, "properties": {"id": "inner-mongolia", "name": "Inner Mongolia", "type": "region", "scale": "regional", "coord_basis": "approx", "record_count": 7, "records": ["M115", "W139", "W142", "W144", "W151", "W158", "W299"]}}, {"type": "Feature", "geometry": {"type": "Point", "coordinates": [108.5, 39.5]}, "properties": {"id": "ordos", "name": "Ordos", "type": "region", "scale": "regional", "coord_basis": "approx", "record_count": 2, "records": ["W158", "W296"]}}, {"type": "Feature", "geometry": {"type": "Point", "coordinates": [105, 61]}, "properties": {"id": "siberia", "name": "Siberia", "type": "region", "scale": "regional", "coord_basis": "wikipedia", "record_count": 78, "records": ["M006", "M028", "M033", "M047", "M048", "M049", "M051", "M053", "M055", "M056", "M059", "M060", "M061", "M062", "M063", "M064", "M065", "M066", "M070", "M071", "M074", "M075", "M076", "M077", "M080", "M083", "M084", "M087", "M099", "M100", "M113", "M114", "W001", "W002", "W006", "W011", "W012", "W014", "W016", "W050", "W062", "W086", "W092", "W093", "W122", "W123", "W124", "W130", "W136", "W159", "W160", "W161", "W165", "W167", "W172", "W176", "W181", "W190", "W197", "W215", "W233", "W250", "W253", "W263", "W264", "W267", "W273", "W274", "W275", "W276", "W278", "W279", "W281", "W282", "W291", "W301", "W302", "W303"]}}, {"type": "Feature", "geometry": {"type": "Point", "coordinates": [76, 62]}, "properties": {"id": "western-siberia", "name": "Western Siberia", "type": "region", "scale": "regional", "coord_basis": "wikipedia", "record_count": 8, "records": ["M057", "M058", "W013", "W168", "W169", "W266", "W286", "W293"]}}, {"type": "Feature", "geometry": {"type": "Point", "coordinates": [115.0, 60.0]}, "properties": {"id": "eastern-siberia", "name": "Eastern Siberia", "type": "region", "scale": "regional", "coord_basis": "approx", "record_count": 1, "records": ["M068"]}}, {"type": "Feature", "geometry": {"type": "Point", "coordinates": [150.0, 66.0]}, "properties": {"id": "northeastern-siberia", "name": "Northeastern Siberia", "type": "region", "scale": "regional", "coord_basis": "approx", "record_count": 5, "records": ["W007", "W008", "W009", "W010", "W284"]}}, {"type": "Feature", "geometry": {"type": "Point", "coordinates": [129.16666667, 66.4]}, "properties": {"id": "yakutia", "name": "Yakutia", "type": "region", "scale": "regional", "coord_basis": "wikipedia", "record_count": 1, "records": ["W267"]}}, {"type": "Feature", "geometry": {"type": "Point", "coordinates": [115, 53]}, "properties": {"id": "transbaikalia", "name": "Transbaikalia", "type": "region", "scale": "regional", "coord_basis": "wikipedia", "record_count": 5, "records": ["M034", "W124", "W274", "W280", "W283"]}}, {"type": "Feature", "geometry": {"type": "Point", "coordinates": [90.0, 71.0]}, "properties": {"id": "arctic", "name": "Arctic", "type": "region", "scale": "regional", "coord_basis": "approx", "record_count": 10, "records": ["M044", "M052", "M079", "M099", "M102", "W009", "W010", "W122", "W250", "W278"]}}, {"type": "Feature", "geometry": {"type": "Point", "coordinates": [80.0, 76.0]}, "properties": {"id": "arctic-ocean", "name": "Arctic Ocean", "type": "ocean", "scale": "macro", "coord_basis": "approx", "record_count": 4, "records": ["M051", "M079", "M083", "W236"]}}, {"type": "Feature", "geometry": {"type": "Point", "coordinates": [65.0, 63.0]}, "properties": {"id": "yugra", "name": "Yugra", "type": "historical-region", "scale": "regional", "coord_basis": "approx", "record_count": 3, "records": ["W235", "W236", "W278"]}}, {"type": "Feature", "geometry": {"type": "Point", "coordinates": [57.0, 67.5]}, "properties": {"id": "bolshezemelskaya", "name": "Bolshezemelskaya tundra", "type": "region", "scale": "regional", "coord_basis": "approx", "record_count": 1, "records": ["W295"]}}, {"type": "Feature", "geometry": {"type": "Point", "coordinates": [103, 35]}, "properties": {"id": "china", "name": "China", "type": "region", "scale": "regional", "coord_basis": "wikipedia", "record_count": 95, "records": ["M009", "M012", "M015", "M016", "M018", "M019", "M022", "M030", "M033", "M044", "M048", "M050", "M051", "M056", "M066", "M068", "M069", "M071", "M075", "M076", "M080", "M083", "M084", "M086", "M091", "M093", "M095", "M096", "M097", "M098", "M099", "M100", "M102", "M103", "M104", "M105", "M106", "M108", "M110", "M112", "M116", "M117", "M118", "W001", "W006", "W012", "W014", "W015", "W017", "W040", "W041", "W051", "W058", "W059", "W067", "W076", "W086", "W094", "W098", "W099", "W100", "W114", "W115", "W116", "W117", "W119", "W130", "W148", "W150", "W152", "W154", "W188", "W195", "W197", "W200", "W201", "W203", "W204", "W205", "W211", "W219", "W234", "W241", "W242", "W244", "W246", "W247", "W248", "W253", "W256", "W260", "W272", "W274", "W291", "W302"]}}, {"type": "Feature", "geometry": {"type": "Point", "coordinates": [115.0, 38.0]}, "properties": {"id": "north-china", "name": "North China", "type": "region", "scale": "regional", "coord_basis": "approx", "record_count": 10, "records": ["M117", "W057", "W118", "W125", "W178", "W183", "W254", "W257", "W296", "W299"]}}, {"type": "Feature", "geometry": {"type": "Point", "coordinates": [125, 43]}, "properties": {"id": "manchuria", "name": "Manchuria", "type": "region", "scale": "regional", "coord_basis": "wikipedia", "record_count": 42, "records": ["M009", "M016", "M019", "M033", "M059", "M061", "M068", "M072", "M077", "M086", "M104", "M107", "M108", "M110", "M111", "M114", "M116", "M117", "W051", "W069", "W076", "W122", "W127", "W131", "W135", "W139", "W140", "W141", "W144", "W145", "W146", "W173", "W180", "W248", "W253", "W256", "W257", "W258", "W259", "W261", "W291", "W302"]}}, {"type": "Feature", "geometry": {"type": "Point", "coordinates": [122.5, 40]}, "properties": {"id": "liaodong", "name": "Liaodong", "type": "region", "scale": "regional", "coord_basis": "wikipedia", "record_count": 2, "records": ["W144", "W145"]}}, {"type": "Feature", "geometry": {"type": "Point", "coordinates": [85, 41]}, "properties": {"id": "xinjiang", "name": "Xinjiang", "type": "region", "scale": "regional", "coord_basis": "wikipedia", "record_count": 22, "records": ["M104", "M106", "M109", "M110", "M111", "M112", "W087", "W127", "W135", "W137", "W138", "W139", "W142", "W234", "W255", "W256", "W257", "W258", "W259", "W261", "W263", "W264"]}}, {"type": "Feature", "geometry": {"type": "Point", "coordinates": [83, 39]}, "properties": {"id": "tarim-basin", "name": "Tarim Basin", "type": "region", "scale": "regional", "coord_basis": "wikipedia", "record_count": 23, "records": ["M065", "M069", "M072", "M077", "M088", "M089", "M116", "W047", "W102", "W103", "W104", "W105", "W107", "W126", "W131", "W137", "W147", "W179", "W180", "W219", "W263", "W265", "W302"]}}, {"type": "Feature", "geometry": {"type": "Point", "coordinates": [66.0, 42.0]}, "properties": {"id": "turkestan", "name": "Turkestan", "type": "historical-region", "scale": "regional", "coord_basis": "approx", "record_count": 16, "records": ["M052", "M054", "M066", "M067", "M073", "M074", "M075", "M080", "M094", "M096", "M098", "W201", "W204", "W205", "W211", "W229"]}}, {"type": "Feature", "geometry": {"type": "Point", "coordinates": [66.0, 40.0]}, "properties": {"id": "transoxiana", "name": "Transoxiana", "type": "historical-region", "scale": "regional", "coord_basis": "approx", "record_count": 24, "records": ["M093", "M094", "M098", "W039", "W119", "W131", "W187", "W188", "W189", "W190", "W191", "W192", "W195", "W196", "W198", "W199", "W200", "W201", "W204", "W205", "W206", "W207", "W211", "W253"]}}, {"type": "Feature", "geometry": {"type": "Point", "coordinates": [59.15, 42.3]}, "properties": {"id": "khwarazm", "name": "Khwarazm", "type": "historical-region", "scale": "regional", "coord_basis": "wikipedia", "record_count": 19, "records": ["M094", "M095", "W022", "W039", "W187", "W191", "W199", "W204", "W205", "W206", "W207", "W208", "W209", "W211", "W215", "W229", "W253", "W254", "W297"]}}, {"type": "Feature", "geometry": {"type": "Point", "coordinates": [62, 36]}, "properties": {"id": "khorasan", "name": "Khorasan", "type": "historical-region", "scale": "regional", "coord_basis": "wikipedia", "record_count": 11, "records": ["M093", "W025", "W119", "W131", "W147", "W188", "W195", "W196", "W198", "W199", "W298"]}}, {"type": "Feature", "geometry": {"type": "Point", "coordinates": [78, 45]}, "properties": {"id": "semirechye", "name": "Semirechye", "type": "region", "scale": "regional", "coord_basis": "wikipedia", "record_count": 3, "records": ["W174", "W180", "W219"]}}, {"type": "Feature", "geometry": {"type": "Point", "coordinates": [71.75777778, 40.90083333]}, "properties": {"id": "fergana", "name": "Fergana", "type": "region", "scale": "regional", "coord_basis": "wikipedia", "record_count": 3, "records": ["M067", "M088", "W074"]}}, {"type": "Feature", "geometry": {"type": "Point", "coordinates": [71.0, 37.0]}, "properties": {"id": "badakhshan", "name": "Badakhshan", "type": "region", "scale": "regional", "coord_basis": "approx", "record_count": 1, "records": ["W023"]}}, {"type": "Feature", "geometry": {"type": "Point", "coordinates": [88.0, 31.5]}, "properties": {"id": "tibet", "name": "Tibet", "type": "region", "scale": "regional", "coord_basis": "approx", "record_count": 57, "records": ["M016", "M019", "M022", "M065", "M069", "M072", "M075", "M077", "M088", "M089", "M096", "M104", "M108", "M109", "M110", "M111", "W017", "W018", "W030", "W031", "W051", "W088", "W089", "W090", "W091", "W126", "W127", "W129", "W130", "W131", "W135", "W138", "W139", "W146", "W148", "W149", "W150", "W151", "W152", "W154", "W155", "W156", "W158", "W180", "W194", "W204", "W234", "W253", "W259", "W261", "W264", "W265", "W272", "W280", "W291", "W296", "W302"]}}, {"type": "Feature", "geometry": {"type": "Point", "coordinates": [80.1, 32.49]}, "properties": {"id": "western-tibet", "name": "Western Tibet", "type": "region", "scale": "regional", "coord_basis": "wikipedia", "record_count": 3, "records": ["W120", "W129", "W153"]}}, {"type": "Feature", "geometry": {"type": "Point", "coordinates": [96.84155278, 30.60166944]}, "properties": {"id": "kham", "name": "Kham", "type": "region", "scale": "regional", "coord_basis": "wikipedia", "record_count": 1, "records": ["W129"]}}, {"type": "Feature", "geometry": {"type": "Point", "coordinates": [96, 35]}, "properties": {"id": "qinghai", "name": "Qinghai (Kokonor)", "type": "region", "scale": "regional", "coord_basis": "wikipedia", "record_count": 8, "records": ["W126", "W138", "W139", "W142", "W149", "W150", "W151", "W158"]}}, {"type": "Feature", "geometry": {"type": "Point", "coordinates": [102, 38]}, "properties": {"id": "gansu", "name": "Gansu", "type": "region", "scale": "regional", "coord_basis": "wikipedia", "record_count": 1, "records": ["W106"]}}, {"type": "Feature", "geometry": {"type": "Point", "coordinates": [102.70888889, 25.04944444]}, "properties": {"id": "yunnan", "name": "Yunnan", "type": "region", "scale": "regional", "coord_basis": "wikipedia", "record_count": 3, "records": ["M107", "W127", "W130"]}}, {"type": "Feature", "geometry": {"type": "Point", "coordinates": [113.5, 23.4]}, "properties": {"id": "guangdong", "name": "Guangdong", "type": "region", "scale": "regional", "coord_basis": "wikipedia", "record_count": 2, "records": ["M107", "W243"]}}, {"type": "Feature", "geometry": {"type": "Point", "coordinates": [118.3, 25.9]}, "properties": {"id": "fujian", "name": "Fujian", "type": "region", "scale": "regional", "coord_basis": "wikipedia", "record_count": 2, "records": ["M107", "W248"]}}, {"type": "Feature", "geometry": {"type": "Point", "coordinates": [127.23333333, 38.31666667]}, "properties": {"id": "korea", "name": "Korea", "type": "region", "scale": "regional", "coord_basis": "wikipedia", "record_count": 21, "records": ["M009", "M012", "M022", "M030", "M048", "M086", "M102", "M103", "M104", "M106", "M108", "M109", "M112", "M117", "M118", "M119", "W122", "W139", "W141", "W144", "W264"]}}, {"type": "Feature", "geometry": {"type": "Point", "coordinates": [138, 36]}, "properties": {"id": "japan", "name": "Japan", "type": "region", "scale": "regional", "coord_basis": "wikipedia", "record_count": 12, "records": ["M029", "M030", "M048", "M090", "M095", "M102", "M103", "M106", "M116", "M117", "M118", "W242"]}}, {"type": "Feature", "geometry": {"type": "Point", "coordinates": [142, 43]}, "properties": {"id": "hokkaido", "name": "Ezo (Hokkaido)", "type": "island", "scale": "local", "coord_basis": "wikipedia", "record_count": 1, "records": ["M114"]}}, {"type": "Feature", "geometry": {"type": "Point", "coordinates": [127.68333333, 26.2]}, "properties": {"id": "ryukyu", "name": "Ryukyu", "type": "island", "scale": "local", "coord_basis": "wikipedia", "record_count": 2, "records": ["M117", "W139"]}}, {"type": "Feature", "geometry": {"type": "Point", "coordinates": [121, 24]}, "properties": {"id": "taiwan", "name": "Taiwan", "type": "island", "scale": "local", "coord_basis": "wikipedia", "record_count": 3, "records": ["M115", "W127", "W135"]}}, {"type": "Feature", "geometry": {"type": "Point", "coordinates": [122, 13]}, "properties": {"id": "philippines", "name": "Philippines", "type": "island", "scale": "local", "coord_basis": "wikipedia", "record_count": 1, "records": ["W241"]}}, {"type": "Feature", "geometry": {"type": "Point", "coordinates": [108, 16]}, "properties": {"id": "vietnam", "name": "Vietnam", "type": "region", "scale": "regional", "coord_basis": "wikipedia", "record_count": 2, "records": ["W135", "W139"]}}, {"type": "Feature", "geometry": {"type": "Point", "coordinates": [108.0, 12.0]}, "properties": {"id": "cochinchina", "name": "Cochinchina", "type": "historical-region", "scale": "regional", "coord_basis": "approx", "record_count": 1, "records": ["W242"]}}, {"type": "Feature", "geometry": {"type": "Point", "coordinates": [100.57, 14.35]}, "properties": {"id": "siam", "name": "Siam", "type": "region", "scale": "regional", "coord_basis": "capital", "record_count": 1, "records": ["W242"]}}, {"type": "Feature", "geometry": {"type": "Point", "coordinates": [96.48333333, 17.33333333]}, "properties": {"id": "pegu", "name": "Pegu", "type": "settlement", "scale": "local", "coord_basis": "wikipedia", "record_count": 1, "records": ["W242"]}}, {"type": "Feature", "geometry": {"type": "Point", "coordinates": [102.24861111, 2.19444444]}, "properties": {"id": "malacca", "name": "Malacca", "type": "settlement", "scale": "local", "coord_basis": "wikipedia", "record_count": 1, "records": ["W242"]}}, {"type": "Feature", "geometry": {"type": "Point", "coordinates": [79.0, 22.0]}, "properties": {"id": "india", "name": "India", "type": "region", "scale": "regional", "coord_basis": "approx", "record_count": 29, "records": ["M032", "M036", "M037", "M038", "M039", "M043", "M044", "M081", "M085", "M091", "M109", "W047", "W060", "W074", "W107", "W136", "W150", "W152", "W187", "W195", "W197", "W200", "W229", "W240", "W245", "W251", "W255", "W271", "W302"]}}, {"type": "Feature", "geometry": {"type": "Point", "coordinates": [74, 31]}, "properties": {"id": "punjab", "name": "Punjab", "type": "region", "scale": "regional", "coord_basis": "wikipedia", "record_count": 1, "records": ["W075"]}}, {"type": "Feature", "geometry": {"type": "Point", "coordinates": [76.5, 34.5]}, "properties": {"id": "kashmir", "name": "Kashmir", "type": "region", "scale": "regional", "coord_basis": "wikipedia", "record_count": 5, "records": ["W019", "W029", "W045", "W120", "W153"]}}, {"type": "Feature", "geometry": {"type": "Point", "coordinates": [77.58472222, 34.16416667]}, "properties": {"id": "ladakh", "name": "Ladakh", "type": "region", "scale": "regional", "coord_basis": "wikipedia", "record_count": 6, "records": ["W019", "W029", "W096", "W120", "W153", "W194"]}}, {"type": "Feature", "geometry": {"type": "Point", "coordinates": [75.61666667, 35.3]}, "properties": {"id": "baltistan", "name": "Baltistan", "type": "region", "scale": "regional", "coord_basis": "wikipedia", "record_count": 2, "records": ["W029", "W153"]}}, {"type": "Feature", "geometry": {"type": "Point", "coordinates": [78.4, 31.6]}, "properties": {"id": "kinnaur", "name": "Kinnaur", "type": "region", "scale": "regional", "coord_basis": "approx", "record_count": 1, "records": ["W030"]}}, {"type": "Feature", "geometry": {"type": "Point", "coordinates": [84.25, 28.16666667]}, "properties": {"id": "nepal", "name": "Nepal", "type": "region", "scale": "regional", "coord_basis": "wikipedia", "record_count": 2, "records": ["W091", "W120"]}}, {"type": "Feature", "geometry": {"type": "Point", "coordinates": [90.435, 27.417]}, "properties": {"id": "bhutan", "name": "Bhutan", "type": "region", "scale": "regional", "coord_basis": "wikipedia", "record_count": 3, "records": ["W018", "W031", "W089"]}}, {"type": "Feature", "geometry": {"type": "Point", "coordinates": [64.5, 27.41666667]}, "properties": {"id": "baluchistan", "name": "Baluchistan", "type": "region", "scale": "regional", "coord_basis": "wikipedia", "record_count": 1, "records": ["M067"]}}, {"type": "Feature", "geometry": {"type": "Point", "coordinates": [69.18333333, 34.51666667]}, "properties": {"id": "afghanistan", "name": "Afghanistan", "type": "region", "scale": "regional", "coord_basis": "wikipedia", "record_count": 9, "records": ["M067", "W019", "W020", "W021", "W023", "W028", "W075", "W113", "W117"]}}, {"type": "Feature", "geometry": {"type": "Point", "coordinates": [53, 32]}, "properties": {"id": "persia", "name": "Persia (Iran)", "type": "region", "scale": "regional", "coord_basis": "wikipedia", "record_count": 48, "records": ["M005", "M011", "M038", "M046", "M050", "M066", "M067", "M081", "W003", "W020", "W021", "W024", "W028", "W044", "W046", "W048", "W049", "W060", "W061", "W063", "W065", "W097", "W114", "W119", "W132", "W187", "W188", "W189", "W195", "W198", "W200", "W206", "W211", "W223", "W229", "W238", "W240", "W245", "W249", "W251", "W252", "W253", "W255", "W260", "W262", "W263", "W271", "W298"]}}, {"type": "Feature", "geometry": {"type": "Point", "coordinates": [49.55, 37.43333333]}, "properties": {"id": "gilan", "name": "Gilan", "type": "region", "scale": "regional", "coord_basis": "wikipedia", "record_count": 2, "records": ["W270", "W288"]}}, {"type": "Feature", "geometry": {"type": "Point", "coordinates": [52.18333333, 36.38333333]}, "properties": {"id": "mazandaran", "name": "Mazandaran", "type": "region", "scale": "regional", "coord_basis": "wikipedia", "record_count": 3, "records": ["W025", "W270", "W288"]}}, {"type": "Feature", "geometry": {"type": "Point", "coordinates": [44, 33]}, "properties": {"id": "iraq", "name": "Iraq", "type": "region", "scale": "regional", "coord_basis": "wikipedia", "record_count": 2, "records": ["W200", "W298"]}}, {"type": "Feature", "geometry": {"type": "Point", "coordinates": [36, 33]}, "properties": {"id": "syria", "name": "Syria", "type": "region", "scale": "regional", "coord_basis": "wikipedia", "record_count": 2, "records": ["W207", "W229"]}}, {"type": "Feature", "geometry": {"type": "Point", "coordinates": [35.8, 33.5]}, "properties": {"id": "levant", "name": "Levant", "type": "region", "scale": "regional", "coord_basis": "approx", "record_count": 2, "records": ["W225", "W240"]}}, {"type": "Feature", "geometry": {"type": "Point", "coordinates": [30, 26]}, "properties": {"id": "egypt", "name": "Egypt", "type": "region", "scale": "regional", "coord_basis": "wikipedia", "record_count": 2, "records": ["W208", "W240"]}}, {"type": "Feature", "geometry": {"type": "Point", "coordinates": [38.7, 9.0]}, "properties": {"id": "ethiopia", "name": "Ethiopia", "type": "region", "scale": "regional", "coord_basis": "approx", "record_count": 1, "records": ["W245"]}}, {"type": "Feature", "geometry": {"type": "Point", "coordinates": [35, 39]}, "properties": {"id": "anatolia", "name": "Anatolia", "type": "region", "scale": "regional", "coord_basis": "wikipedia", "record_count": 10, "records": ["W187", "W198", "W206", "W207", "W211", "W223", "W228", "W255", "W270", "W298"]}}, {"type": "Feature", "geometry": {"type": "Point", "coordinates": [44.5, 42.75]}, "properties": {"id": "caucasus", "name": "Caucasus", "type": "region", "scale": "regional", "coord_basis": "wikipedia", "record_count": 23, "records": ["W005", "W033", "W037", "W046", "W049", "W056", "W061", "W064", "W167", "W187", "W201", "W203", "W208", "W210", "W211", "W238", "W263", "W264", "W281", "W282", "W291", "W297", "W298"]}}, {"type": "Feature", "geometry": {"type": "Point", "coordinates": [43.37194444, 39.28361111]}, "properties": {"id": "armenia", "name": "Armenia", "type": "region", "scale": "regional", "coord_basis": "wikipedia", "record_count": 6, "records": ["W223", "W228", "W229", "W240", "W270", "W271"]}}, {"type": "Feature", "geometry": {"type": "Point", "coordinates": [43.5, 42]}, "properties": {"id": "georgia", "name": "Georgia (Caucasus)", "type": "region", "scale": "regional", "coord_basis": "wikipedia", "record_count": 3, "records": ["W223", "W240", "W300"]}}, {"type": "Feature", "geometry": {"type": "Point", "coordinates": [42.98333333, 42.16666667]}, "properties": {"id": "imereti", "name": "Imereti", "type": "region", "scale": "regional", "coord_basis": "wikipedia", "record_count": 1, "records": ["W300"]}}, {"type": "Feature", "geometry": {"type": "Point", "coordinates": [47, 37.6]}, "properties": {"id": "azerbaijan", "name": "Azerbaijan", "type": "region", "scale": "regional", "coord_basis": "wikipedia", "record_count": 3, "records": ["W198", "W270", "W298"]}}, {"type": "Feature", "geometry": {"type": "Point", "coordinates": [41, 43]}, "properties": {"id": "abkhazia", "name": "Abkhazia", "type": "region", "scale": "regional", "coord_basis": "centroid", "record_count": 1, "records": ["W269"]}}, {"type": "Feature", "geometry": {"type": "Point", "coordinates": [44, 43]}, "properties": {"id": "ossetia", "name": "Ossetia", "type": "region", "scale": "regional", "coord_basis": "wikipedia", "record_count": 1, "records": ["W300"]}}, {"type": "Feature", "geometry": {"type": "Point", "coordinates": [43.4, 43.5]}, "properties": {"id": "kabarda", "name": "Kabarda", "type": "region", "scale": "regional", "coord_basis": "approx", "record_count": 1, "records": ["W300"]}}, {"type": "Feature", "geometry": {"type": "Point", "coordinates": [39.5, 44.5]}, "properties": {"id": "circassia", "name": "Circassia", "type": "historical-region", "scale": "regional", "coord_basis": "approx", "record_count": 5, "records": ["W066", "W085", "W213", "W238", "W269"]}}, {"type": "Feature", "geometry": {"type": "Point", "coordinates": [47.505, 42.9839]}, "properties": {"id": "dagestan", "name": "Dagestan", "type": "region", "scale": "regional", "coord_basis": "wikipedia", "record_count": 3, "records": ["W210", "W249", "W288"]}}, {"type": "Feature", "geometry": {"type": "Point", "coordinates": [34.4, 45.3]}, "properties": {"id": "crimea", "name": "Crimea", "type": "region", "scale": "regional", "coord_basis": "wikipedia", "record_count": 41, "records": ["M084", "M092", "W005", "W032", "W033", "W052", "W053", "W054", "W055", "W061", "W066", "W073", "W078", "W082", "W083", "W084", "W085", "W121", "W122", "W165", "W166", "W167", "W204", "W206", "W207", "W208", "W210", "W212", "W213", "W214", "W218", "W222", "W231", "W232", "W235", "W237", "W238", "W268", "W269", "W289", "W297"]}}, {"type": "Feature", "geometry": {"type": "Point", "coordinates": [29.5, 46]}, "properties": {"id": "budjak", "name": "Budjak", "type": "region", "scale": "regional", "coord_basis": "wikipedia", "record_count": 2, "records": ["W212", "W214"]}}, {"type": "Feature", "geometry": {"type": "Point", "coordinates": [29, 47]}, "properties": {"id": "bessarabia", "name": "Bessarabia", "type": "region", "scale": "regional", "coord_basis": "wikipedia", "record_count": 1, "records": ["W222"]}}, {"type": "Feature", "geometry": {"type": "Point", "coordinates": [22.0, 43.0]}, "properties": {"id": "balkans", "name": "Balkans", "type": "region", "scale": "regional", "coord_basis": "approx", "record_count": 1, "records": ["W210"]}}, {"type": "Feature", "geometry": {"type": "Point", "coordinates": [19.03944444, 47.49611111]}, "properties": {"id": "hungary", "name": "Hungary", "type": "region", "scale": "regional", "coord_basis": "capital (wikipedia)", "record_count": 6, "records": ["W163", "W224", "W225", "W226", "W227", "W230"]}}, {"type": "Feature", "geometry": {"type": "Point", "coordinates": [24.5, 46.5]}, "properties": {"id": "transylvania", "name": "Transylvania", "type": "region", "scale": "regional", "coord_basis": "wikipedia", "record_count": 1, "records": ["W226"]}}, {"type": "Feature", "geometry": {"type": "Point", "coordinates": [15.5, 45.16666667]}, "properties": {"id": "croatia", "name": "Croatia", "type": "region", "scale": "regional", "coord_basis": "wikipedia", "record_count": 1, "records": ["W227"]}}, {"type": "Feature", "geometry": {"type": "Point", "coordinates": [16.4, 43.5]}, "properties": {"id": "dalmatia", "name": "Dalmatia", "type": "region", "scale": "regional", "coord_basis": "approx", "record_count": 1, "records": ["W227"]}}, {"type": "Feature", "geometry": {"type": "Point", "coordinates": [13.33333333, 47.33333333]}, "properties": {"id": "austria", "name": "Austria", "type": "region", "scale": "regional", "coord_basis": "wikipedia", "record_count": 1, "records": ["W230"]}}, {"type": "Feature", "geometry": {"type": "Point", "coordinates": [11.5, 49]}, "properties": {"id": "bavaria", "name": "Bavaria", "type": "region", "scale": "regional", "coord_basis": "wikipedia", "record_count": 1, "records": ["W230"]}}, {"type": "Feature", "geometry": {"type": "Point", "coordinates": [15, 50]}, "properties": {"id": "bohemia", "name": "Bohemia", "type": "region", "scale": "regional", "coord_basis": "wikipedia", "record_count": 1, "records": ["W230"]}}, {"type": "Feature", "geometry": {"type": "Point", "coordinates": [20, 52]}, "properties": {"id": "poland", "name": "Poland", "type": "region", "scale": "regional", "coord_basis": "wikipedia", "record_count": 6, "records": ["W163", "W214", "W224", "W225", "W231", "W235"]}}, {"type": "Feature", "geometry": {"type": "Point", "coordinates": [25.28, 54.69]}, "properties": {"id": "lithuania", "name": "Lithuania", "type": "region", "scale": "regional", "coord_basis": "capital", "record_count": 3, "records": ["W231", "W232", "W235"]}}, {"type": "Feature", "geometry": {"type": "Point", "coordinates": [25.5, 57.5]}, "properties": {"id": "livonia", "name": "Livonia", "type": "historical-region", "scale": "regional", "coord_basis": "approx", "record_count": 1, "records": ["W233"]}}, {"type": "Feature", "geometry": {"type": "Point", "coordinates": [26, 64]}, "properties": {"id": "finland", "name": "Finland", "type": "region", "scale": "regional", "coord_basis": "wikipedia", "record_count": 1, "records": ["W303"]}}, {"type": "Feature", "geometry": {"type": "Point", "coordinates": [2, 47]}, "properties": {"id": "france", "name": "France", "type": "region", "scale": "regional", "coord_basis": "wikipedia", "record_count": 1, "records": ["W262"]}}, {"type": "Feature", "geometry": {"type": "Point", "coordinates": [30.51666667, 50.45]}, "properties": {"id": "ukraine", "name": "Ukraine", "type": "region", "scale": "regional", "coord_basis": "wikipedia", "record_count": 1, "records": ["W214"]}}, {"type": "Feature", "geometry": {"type": "Point", "coordinates": [-102, 23]}, "properties": {"id": "mexico", "name": "Mexico", "type": "region", "scale": "regional", "coord_basis": "wikipedia", "record_count": 1, "records": ["W241"]}}, {"type": "Feature", "geometry": {"type": "Point", "coordinates": [55.94166667, 54.71666667]}, "properties": {"id": "bashkiria", "name": "Bashkiria", "type": "region", "scale": "regional", "coord_basis": "wikipedia", "record_count": 2, "records": ["W175", "W287"]}}, {"type": "Feature", "geometry": {"type": "Point", "coordinates": [56.13333333, 59.23333333]}, "properties": {"id": "perm-region", "name": "Perm", "type": "region", "scale": "regional", "coord_basis": "wikipedia", "record_count": 2, "records": ["M099", "W168"]}}, {"type": "Feature", "geometry": {"type": "Point", "coordinates": [51.0, 55.5]}, "properties": {"id": "volga-kama", "name": "Volga-Kama region", "type": "region", "scale": "regional", "coord_basis": "approx", "record_count": 2, "records": ["W162", "W217"]}}, {"type": "Feature", "geometry": {"type": "Point", "coordinates": [160, 57]}, "properties": {"id": "kamchatka", "name": "Kamchatka", "type": "region", "scale": "regional", "coord_basis": "wikipedia", "record_count": 20, "records": ["M055", "M056", "M061", "M071", "M100", "M101", "W007", "W008", "W012", "W014", "W062", "W159", "W160", "W266", "W267", "W278", "W281", "W282", "W284", "W285"]}}, {"type": "Feature", "geometry": {"type": "Point", "coordinates": [150, 55]}, "properties": {"id": "okhotsk-coast", "name": "Okhotsk coast", "type": "region", "scale": "regional", "coord_basis": "wikipedia", "record_count": 1, "records": ["W267"]}}, {"type": "Feature", "geometry": {"type": "Point", "coordinates": [143, 51]}, "properties": {"id": "sakhalin", "name": "Sakhalin", "type": "island", "scale": "local", "coord_basis": "wikipedia", "record_count": 3, "records": ["M110", "M114", "W140"]}}, {"type": "Feature", "geometry": {"type": "Point", "coordinates": [152.1, 47]}, "properties": {"id": "kuril-islands", "name": "Kuril Islands", "type": "island", "scale": "local", "coord_basis": "wikipedia", "record_count": 2, "records": ["M100", "W284"]}}, {"type": "Feature", "geometry": {"type": "Point", "coordinates": [-174.2, 52.2]}, "properties": {"id": "aleutians", "name": "Aleutian Islands", "type": "island", "scale": "local", "coord_basis": "wikipedia", "record_count": 4, "records": ["W159", "W160", "W281", "W285"]}}, {"type": "Feature", "geometry": {"type": "Point", "coordinates": [-152, 64]}, "properties": {"id": "alaska", "name": "Alaska coast", "type": "region", "scale": "regional", "coord_basis": "wikipedia", "record_count": 1, "records": ["W285"]}}, {"type": "Feature", "geometry": {"type": "Point", "coordinates": [166.27305556, 55.00083333]}, "properties": {"id": "bering-island", "name": "Bering Island", "type": "island", "scale": "local", "coord_basis": "wikipedia", "record_count": 1, "records": ["W285"]}}, {"type": "Feature", "geometry": {"type": "Point", "coordinates": [57.95, 74.75]}, "properties": {"id": "novaya-zemlya", "name": "Novaya Zemlya", "type": "island", "scale": "local", "coord_basis": "wikipedia", "record_count": 4, "records": ["M050", "M051", "M080", "M083"]}}, {"type": "Feature", "geometry": {"type": "Point", "coordinates": [116.56444444, 40.43138889]}, "properties": {"id": "great-wall", "name": "Great Wall", "type": "region", "scale": "regional", "coord_basis": "wikipedia", "record_count": 7, "records": ["M086", "M104", "W170", "W239", "W241", "W242", "W244"]}}, {"type": "Feature", "geometry": {"type": "Point", "coordinates": [120.22388889, 30.26138889]}, "properties": {"id": "grand-canal", "name": "Grand Canal", "type": "canal", "scale": "linear", "coord_basis": "wikipedia", "record_count": 1, "records": ["W299"]}}, {"type": "Feature", "geometry": {"type": "Point", "coordinates": [103.43, 42.59]}, "properties": {"id": "gobi", "name": "Gobi", "type": "desert", "scale": "regional", "coord_basis": "wikipedia", "record_count": 7, "records": ["M102", "M106", "W170", "W171", "W177", "W234", "W277"]}}, {"type": "Feature", "geometry": {"type": "Point", "coordinates": [63.46138889, 42.44111111]}, "properties": {"id": "kyzylkum", "name": "Kyzylkum", "type": "desert", "scale": "regional", "coord_basis": "wikipedia", "record_count": 1, "records": ["W294"]}}, {"type": "Feature", "geometry": {"type": "Point", "coordinates": [55.55, 43.28333333]}, "properties": {"id": "ustyurt", "name": "Ustyurt plateau", "type": "desert", "scale": "regional", "coord_basis": "wikipedia", "record_count": 1, "records": ["W294"]}}, {"type": "Feature", "geometry": {"type": "Point", "coordinates": [52, 44]}, "properties": {"id": "mangyshlak", "name": "Mangyshlak", "type": "region", "scale": "regional", "coord_basis": "wikipedia", "record_count": 1, "records": ["W209"]}}, {"type": "Feature", "geometry": {"type": "Point", "coordinates": [54.56666667, 39.66666667]}, "properties": {"id": "balkhan", "name": "Balkhan", "type": "mountains", "scale": "regional", "coord_basis": "wikipedia", "record_count": 1, "records": ["W209"]}}, {"type": "Feature", "geometry": {"type": "Point", "coordinates": [57.0, 39.0]}, "properties": {"id": "turkmen-country", "name": "Turkmen lands", "type": "historical-region", "scale": "regional", "coord_basis": "approx", "record_count": 4, "records": ["M097", "W025", "W027", "W110"]}}, {"type": "Feature", "geometry": {"type": "Point", "coordinates": [78, 55.75]}, "properties": {"id": "baraba-steppe", "name": "Baraba steppe", "type": "steppe", "scale": "regional", "coord_basis": "wikipedia", "record_count": 3, "records": ["M057", "W283", "W286"]}}, {"type": "Feature", "geometry": {"type": "Point", "coordinates": [73.5, 38.5]}, "properties": {"id": "pamirs", "name": "Pamirs", "type": "mountains", "scale": "regional", "coord_basis": "wikipedia", "record_count": 4, "records": ["M104", "M110", "W023", "W117"]}}, {"type": "Feature", "geometry": {"type": "Point", "coordinates": [80, 42]}, "properties": {"id": "tian-shan", "name": "Tian Shan", "type": "mountains", "scale": "regional", "coord_basis": "wikipedia", "record_count": 7, "records": ["M088", "M089", "W179", "W180", "W193", "W265", "W302"]}}, {"type": "Feature", "geometry": {"type": "Point", "coordinates": [89, 49]}, "properties": {"id": "altai", "name": "Altai", "type": "mountains", "scale": "regional", "coord_basis": "wikipedia", "record_count": 11, "records": ["M057", "M089", "W118", "W124", "W170", "W265", "W281", "W286", "W292", "W293", "W302"]}}, {"type": "Feature", "geometry": {"type": "Point", "coordinates": [59, 60]}, "properties": {"id": "urals", "name": "Ural Mountains", "type": "mountains", "scale": "regional", "coord_basis": "wikipedia", "record_count": 14, "records": ["W124", "W167", "W168", "W169", "W265", "W266", "W267", "W279", "W283", "W286", "W287", "W293", "W295", "W301"]}}, {"type": "Feature", "geometry": {"type": "Point", "coordinates": [84, 36]}, "properties": {"id": "kunlun", "name": "Kunlun", "type": "mountains", "scale": "regional", "coord_basis": "wikipedia", "record_count": 2, "records": ["M069", "M089"]}}, {"type": "Feature", "geometry": {"type": "Point", "coordinates": [86.91666667, 27.98333333]}, "properties": {"id": "himalaya", "name": "Himalaya", "type": "mountains", "scale": "regional", "coord_basis": "wikipedia", "record_count": 3, "records": ["M089", "W018", "W088"]}}, {"type": "Feature", "geometry": {"type": "Point", "coordinates": [123.1567383, 49.3823728]}, "properties": {"id": "khingan", "name": "Khingan", "type": "mountains", "scale": "regional", "coord_basis": "wikipedia", "record_count": 1, "records": ["W221"]}}, {"type": "Feature", "geometry": {"type": "Point", "coordinates": [66.973, 38.211]}, "properties": {"id": "iron-gate-sogdiana", "name": "Iron Gate (Sogdiana)", "type": "mountains", "scale": "regional", "coord_basis": "wikipedia", "record_count": 1, "records": ["W221"]}}, {"type": "Feature", "geometry": {"type": "Point", "coordinates": [110.5, 48.5]}, "properties": {"id": "onon-kerulen", "name": "Onon and Kerulen valleys", "type": "region", "scale": "regional", "coord_basis": "approx", "record_count": 1, "records": ["W118"]}}, {"type": "Feature", "geometry": {"type": "Point", "coordinates": [102.83138889, 47.55666667]}, "properties": {"id": "orkhon-valley", "name": "Orkhon valley", "type": "region", "scale": "regional", "coord_basis": "wikipedia", "record_count": 1, "records": ["W221"]}}, {"type": "Feature", "geometry": {"type": "Point", "coordinates": [47.8975, 45.695]}, "properties": {"id": "volga", "name": "Volga", "type": "river", "scale": "linear", "coord_basis": "wikipedia (river point, usually the mouth)", "record_count": 45, "records": ["M052", "W004", "W016", "W034", "W035", "W036", "W048", "W060", "W122", "W124", "W164", "W165", "W166", "W167", "W184", "W197", "W201", "W202", "W204", "W205", "W206", "W208", "W210", "W215", "W216", "W219", "W231", "W235", "W236", "W249", "W251", "W252", "W258", "W266", "W271", "W275", "W278", "W282", "W286", "W287", "W288", "W297", "W300", "W301", "W303"]}}, {"type": "Feature", "geometry": {"type": "Point", "coordinates": [141.08388889, 52.94722222]}, "properties": {"id": "amur", "name": "Amur", "type": "river", "scale": "linear", "coord_basis": "wikipedia (river point, usually the mouth)", "record_count": 17, "records": ["M034", "M051", "M053", "M054", "M059", "M065", "M068", "M115", "W122", "W123", "W140", "W141", "W144", "W264", "W278", "W279", "W302"]}}, {"type": "Feature", "geometry": {"type": "Point", "coordinates": [68.83027778, 61.08111111]}, "properties": {"id": "irtysh", "name": "Irtysh", "type": "river", "scale": "linear", "coord_basis": "wikipedia (river point, usually the mouth)", "record_count": 13, "records": ["M057", "M100", "W123", "W168", "W169", "W171", "W174", "W176", "W266", "W276", "W279", "W292", "W293"]}}, {"type": "Feature", "geometry": {"type": "Point", "coordinates": [71.39472222, 66.53388889]}, "properties": {"id": "ob", "name": "Ob", "type": "river", "scale": "linear", "coord_basis": "wikipedia (river point, usually the mouth)", "record_count": 14, "records": ["M047", "M049", "M051", "M053", "M079", "M085", "W123", "W167", "W168", "W170", "W176", "W250", "W276", "W279"]}}, {"type": "Feature", "geometry": {"type": "Point", "coordinates": [39.23861111, 47.08638889]}, "properties": {"id": "don", "name": "Don", "type": "river", "scale": "linear", "coord_basis": "wikipedia (river point, usually the mouth)", "record_count": 5, "records": ["W167", "W186", "W235", "W288", "W300"]}}, {"type": "Feature", "geometry": {"type": "Point", "coordinates": [32.33333333, 46.5]}, "properties": {"id": "dnieper", "name": "Dnieper", "type": "river", "scale": "linear", "coord_basis": "wikipedia (river point, usually the mouth)", "record_count": 1, "records": ["M092"]}}, {"type": "Feature", "geometry": {"type": "Point", "coordinates": [29.76138889, 45.2175]}, "properties": {"id": "danube", "name": "Danube", "type": "river", "scale": "linear", "coord_basis": "wikipedia (river point, usually the mouth)", "record_count": 5, "records": ["W121", "W226", "W230", "W268", "W269"]}}, {"type": "Feature", "geometry": {"type": "Point", "coordinates": [37.4, 45.33333333]}, "properties": {"id": "kuban", "name": "Kuban", "type": "river", "scale": "linear", "coord_basis": "wikipedia (river point, usually the mouth)", "record_count": 9, "records": ["M092", "W055", "W210", "W212", "W213", "W222", "W268", "W269", "W300"]}}, {"type": "Feature", "geometry": {"type": "Point", "coordinates": [47.561667, 43.595278]}, "properties": {"id": "terek", "name": "Terek", "type": "river", "scale": "linear", "coord_basis": "wikipedia (river point, usually the mouth)", "record_count": 2, "records": ["W288", "W300"]}}, {"type": "Feature", "geometry": {"type": "Point", "coordinates": [60.87361111, 46.15416667]}, "properties": {"id": "syr-darya", "name": "Syr Darya", "type": "river", "scale": "linear", "coord_basis": "wikipedia (river point, usually the mouth)", "record_count": 3, "records": ["W181", "W209", "W219"]}}, {"type": "Feature", "geometry": {"type": "Point", "coordinates": [51.61666667, 46.88333333]}, "properties": {"id": "ural-river", "name": "Ural river", "type": "river", "scale": "linear", "coord_basis": "wikipedia (river point, usually the mouth)", "record_count": 1, "records": ["W175"]}}, {"type": "Feature", "geometry": {"type": "Point", "coordinates": [82.66666667, 71.83333333]}, "properties": {"id": "yenisei", "name": "Yenisei", "type": "river", "scale": "linear", "coord_basis": "wikipedia (river point, usually the mouth)", "record_count": 7, "records": ["M034", "M051", "M057", "W123", "W176", "W221", "W279"]}}, {"type": "Feature", "geometry": {"type": "Point", "coordinates": [126.6847, 72.4087]}, "properties": {"id": "lena", "name": "Lena", "type": "river", "scale": "linear", "coord_basis": "wikipedia (river point, usually the mouth)", "record_count": 1, "records": ["W279"]}}, {"type": "Feature", "geometry": {"type": "Point", "coordinates": [107.6, 51.8]}, "properties": {"id": "selenga", "name": "Selenga", "type": "river", "scale": "linear", "coord_basis": "approx", "record_count": 4, "records": ["M034", "M035", "W123", "W172"]}}, {"type": "Feature", "geometry": {"type": "Point", "coordinates": [119.5, 51.0]}, "properties": {"id": "argun", "name": "Argun", "type": "river", "scale": "linear", "coord_basis": "approx", "record_count": 2, "records": ["M034", "W277"]}}, {"type": "Feature", "geometry": {"type": "Point", "coordinates": [68.2153, 58.1539]}, "properties": {"id": "tobol", "name": "Tobol", "type": "river", "scale": "linear", "coord_basis": "wikipedia (river point, usually the mouth)", "record_count": 2, "records": ["M057", "W168"]}}, {"type": "Feature", "geometry": {"type": "Point", "coordinates": [92.991, 58.102]}, "properties": {"id": "angara", "name": "Angara", "type": "river", "scale": "linear", "coord_basis": "wikipedia (river point, usually the mouth)", "record_count": 1, "records": ["W123"]}}, {"type": "Feature", "geometry": {"type": "Point", "coordinates": [87.95555556, 65.78333333]}, "properties": {"id": "tunguska", "name": "Tunguska", "type": "river", "scale": "linear", "coord_basis": "wikipedia (river point, usually the mouth)", "record_count": 1, "records": ["M057"]}}, {"type": "Feature", "geometry": {"type": "Point", "coordinates": [54.41666667, 68.3]}, "properties": {"id": "pechora", "name": "Pechora", "type": "river", "scale": "linear", "coord_basis": "wikipedia (river point, usually the mouth)", "record_count": 2, "records": ["W236", "W295"]}}, {"type": "Feature", "geometry": {"type": "Point", "coordinates": [44.0625, 65.98611111]}, "properties": {"id": "mezen", "name": "Mezen", "type": "river", "scale": "linear", "coord_basis": "wikipedia (river point, usually the mouth)", "record_count": 1, "records": ["W295"]}}, {"type": "Feature", "geometry": {"type": "Point", "coordinates": [134.7204, 48.2666]}, "properties": {"id": "ussuri", "name": "Ussuri", "type": "river", "scale": "linear", "coord_basis": "wikipedia (river point, usually the mouth)", "record_count": 1, "records": ["W140"]}}, {"type": "Feature", "geometry": {"type": "Point", "coordinates": [117.08333333, 48.73333333]}, "properties": {"id": "kerulen", "name": "Kerulen", "type": "river", "scale": "linear", "coord_basis": "wikipedia (river point, usually the mouth)", "record_count": 2, "records": ["W132", "W133"]}}, {"type": "Feature", "geometry": {"type": "Point", "coordinates": [74.13333333, 45.4]}, "properties": {"id": "ili", "name": "Ili", "type": "river", "scale": "linear", "coord_basis": "wikipedia (river point, usually the mouth)", "record_count": 4, "records": ["W137", "W174", "W179", "W258"]}}, {"type": "Feature", "geometry": {"type": "Point", "coordinates": [67.435, 23.995]}, "properties": {"id": "indus", "name": "Indus", "type": "river", "scale": "linear", "coord_basis": "wikipedia (river point, usually the mouth)", "record_count": 1, "records": ["W020"]}}, {"type": "Feature", "geometry": {"type": "Point", "coordinates": [47.51694444, 51.98527778]}, "properties": {"id": "irgiz", "name": "Irgiz", "type": "river", "scale": "linear", "coord_basis": "wikipedia (river point, usually the mouth)", "record_count": 1, "records": ["W182"]}}, {"type": "Feature", "geometry": {"type": "Point", "coordinates": [37.6105, 47.1179]}, "properties": {"id": "kalka", "name": "Kalka", "type": "river", "scale": "linear", "coord_basis": "wikipedia (river point, usually the mouth)", "record_count": 2, "records": ["W162", "W164"]}}, {"type": "Feature", "geometry": {"type": "Point", "coordinates": [38.6516, 53.6645]}, "properties": {"id": "nepryadva", "name": "Nepryadva", "type": "river", "scale": "linear", "coord_basis": "wikipedia (river point, usually the mouth)", "record_count": 1, "records": ["W186"]}}, {"type": "Feature", "geometry": {"type": "Point", "coordinates": [83.9903, 49.7406]}, "properties": {"id": "bukhtarma", "name": "Bukhtarma", "type": "river", "scale": "linear", "coord_basis": "wikipedia (river point, usually the mouth)", "record_count": 1, "records": ["W292"]}}, {"type": "Feature", "geometry": {"type": "Point", "coordinates": [108.997, 53.425]}, "properties": {"id": "barguzin", "name": "Barguzin", "type": "river", "scale": "linear", "coord_basis": "wikipedia (river point, usually the mouth)", "record_count": 1, "records": ["M035"]}}, {"type": "Feature", "geometry": {"type": "Point", "coordinates": [130.69888889, 42.29277778]}, "properties": {"id": "tumen-river", "name": "Tumen", "type": "river", "scale": "linear", "coord_basis": "wikipedia (river point, usually the mouth)", "record_count": 1, "records": ["M046"]}}, {"type": "Feature", "geometry": {"type": "Point", "coordinates": [50.5, 42]}, "properties": {"id": "caspian", "name": "Caspian Sea", "type": "sea", "scale": "regional", "coord_basis": "wikipedia", "record_count": 50, "records": ["M031", "M036", "M039", "M046", "M048", "M049", "M050", "M051", "M053", "M054", "M055", "M056", "M058", "M067", "M073", "M079", "M080", "M081", "M082", "M083", "M084", "M085", "M092", "M093", "M094", "M102", "M103", "M118", "W001", "W003", "W004", "W022", "W044", "W048", "W060", "W064", "W081", "W122", "W124", "W167", "W201", "W225", "W235", "W236", "W249", "W251", "W275", "W287", "W288", "W293"]}}, {"type": "Feature", "geometry": {"type": "Point", "coordinates": [60, 45]}, "properties": {"id": "aral", "name": "Aral Sea", "type": "lake", "scale": "local", "coord_basis": "wikipedia", "record_count": 9, "records": ["M058", "M067", "M073", "M093", "M098", "W175", "W181", "W182", "W265"]}}, {"type": "Feature", "geometry": {"type": "Point", "coordinates": [35, 44]}, "properties": {"id": "black-sea", "name": "Black Sea", "type": "sea", "scale": "regional", "coord_basis": "wikipedia", "record_count": 17, "records": ["M008", "M036", "M092", "W032", "W037", "W049", "W052", "W054", "W055", "W066", "W083", "W101", "W121", "W218", "W240", "W268", "W269"]}}, {"type": "Feature", "geometry": {"type": "Point", "coordinates": [37, 46]}, "properties": {"id": "sea-of-azov", "name": "Sea of Azov", "type": "sea", "scale": "regional", "coord_basis": "wikipedia", "record_count": 1, "records": ["M092"]}}, {"type": "Feature", "geometry": {"type": "Point", "coordinates": [108, 53.5]}, "properties": {"id": "baikal", "name": "Lake Baikal", "type": "lake", "scale": "local", "coord_basis": "wikipedia", "record_count": 6, "records": ["M035", "M059", "M068", "W123", "W267", "W283"]}}, {"type": "Feature", "geometry": {"type": "Point", "coordinates": [74.33333333, 46.16666667]}, "properties": {"id": "balkhash", "name": "Lake Balkhash", "type": "lake", "scale": "local", "coord_basis": "wikipedia", "record_count": 1, "records": ["W137"]}}, {"type": "Feature", "geometry": {"type": "Point", "coordinates": [77.25, 42.41666667]}, "properties": {"id": "issyk-kul", "name": "Issyk-Kul", "type": "lake", "scale": "local", "coord_basis": "wikipedia", "record_count": 1, "records": ["W137"]}}, {"type": "Feature", "geometry": {"type": "Point", "coordinates": [84, 48]}, "properties": {"id": "zaisan", "name": "Lake Zaysan", "type": "lake", "scale": "local", "coord_basis": "wikipedia", "record_count": 1, "records": ["W174"]}}, {"type": "Feature", "geometry": {"type": "Point", "coordinates": [77, 77]}, "properties": {"id": "kara-sea", "name": "Kara Sea", "type": "sea", "scale": "regional", "coord_basis": "wikipedia", "record_count": 2, "records": ["M047", "W295"]}}, {"type": "Feature", "geometry": {"type": "Point", "coordinates": [-178, 58]}, "properties": {"id": "bering-sea", "name": "Bering Sea", "type": "sea", "scale": "regional", "coord_basis": "wikipedia", "record_count": 1, "records": ["W285"]}}, {"type": "Feature", "geometry": {"type": "Point", "coordinates": [-168.97694444, 65.75]}, "properties": {"id": "bering-strait", "name": "Bering Strait", "type": "strait", "scale": "local", "coord_basis": "wikipedia", "record_count": 1, "records": ["W278"]}}, {"type": "Feature", "geometry": {"type": "Point", "coordinates": [-70, 62]}, "properties": {"id": "hudson-strait", "name": "Hudson Strait", "type": "strait", "scale": "local", "coord_basis": "wikipedia", "record_count": 1, "records": ["W250"]}}, {"type": "Feature", "geometry": {"type": "Point", "coordinates": [-160, 0]}, "properties": {"id": "pacific", "name": "Pacific Ocean", "type": "ocean", "scale": "macro", "coord_basis": "wikipedia", "record_count": 8, "records": ["M029", "M030", "M052", "M116", "W008", "W009", "W062", "W086"]}}, {"type": "Feature", "geometry": {"type": "Point", "coordinates": [80, -20]}, "properties": {"id": "indian-ocean", "name": "Indian Ocean", "type": "ocean", "scale": "macro", "coord_basis": "wikipedia", "record_count": 3, "records": ["M040", "M097", "M117"]}}, {"type": "Feature", "geometry": {"type": "Point", "coordinates": [18, 35]}, "properties": {"id": "mediterranean", "name": "Mediterranean", "type": "sea", "scale": "regional", "coord_basis": "wikipedia", "record_count": 2, "records": ["M036", "M097"]}}, {"type": "Feature", "geometry": {"type": "Point", "coordinates": [116.3975, 39.90666667]}, "properties": {"id": "beijing", "name": "Beijing", "type": "settlement", "scale": "local", "coord_basis": "wikipedia", "record_count": 21, "records": ["M024", "M047", "W057", "W058", "W133", "W151", "W155", "W170", "W171", "W172", "W173", "W177", "W239", "W242", "W244", "W246", "W247", "W248", "W259", "W277", "W299"]}}, {"type": "Feature", "geometry": {"type": "Point", "coordinates": [117.963, 40.953]}, "properties": {"id": "chengde", "name": "Chengde (Jehol)", "type": "settlement", "scale": "local", "coord_basis": "wikipedia", "record_count": 3, "records": ["W059", "W067", "W299"]}}, {"type": "Feature", "geometry": {"type": "Point", "coordinates": [118.77888889, 32.06083333]}, "properties": {"id": "nanjing", "name": "Nanjing", "type": "settlement", "scale": "local", "coord_basis": "wikipedia", "record_count": 4, "records": ["W239", "W242", "W244", "W247"]}}, {"type": "Feature", "geometry": {"type": "Point", "coordinates": [113.26, 23.13]}, "properties": {"id": "guangzhou", "name": "Guangzhou (Canton)", "type": "settlement", "scale": "local", "coord_basis": "wikipedia", "record_count": 4, "records": ["W239", "W243", "W246", "W247"]}}, {"type": "Feature", "geometry": {"type": "Point", "coordinates": [113.54, 22.19]}, "properties": {"id": "macau", "name": "Macau", "type": "settlement", "scale": "local", "coord_basis": "wikipedia", "record_count": 1, "records": ["W244"]}}, {"type": "Feature", "geometry": {"type": "Point", "coordinates": [123.42805556, 41.8025]}, "properties": {"id": "mukden", "name": "Mukden (Shenyang)", "type": "settlement", "scale": "local", "coord_basis": "wikipedia", "record_count": 2, "records": ["M108", "W258"]}}, {"type": "Feature", "geometry": {"type": "Point", "coordinates": [127.49333333, 50.24111111]}, "properties": {"id": "aigun", "name": "Aigun", "type": "settlement", "scale": "local", "coord_basis": "wikipedia", "record_count": 1, "records": ["M115"]}}, {"type": "Feature", "geometry": {"type": "Point", "coordinates": [91.1175, 29.6539]}, "properties": {"id": "lhasa", "name": "Lhasa", "type": "settlement", "scale": "local", "coord_basis": "wikipedia", "record_count": 2, "records": ["W120", "W234"]}}, {"type": "Feature", "geometry": {"type": "Point", "coordinates": [79.67055556, 31.46638889]}, "properties": {"id": "tsaparang", "name": "Tsaparang", "type": "settlement", "scale": "local", "coord_basis": "wikipedia", "record_count": 1, "records": ["W120"]}}, {"type": "Feature", "geometry": {"type": "Point", "coordinates": [85.9793, 28.1572]}, "properties": {"id": "kuti", "name": "Kuti (Nyalam)", "type": "settlement", "scale": "local", "coord_basis": "wikipedia", "record_count": 1, "records": ["W120"]}}, {"type": "Feature", "geometry": {"type": "Point", "coordinates": [102.84777778, 47.21027778]}, "properties": {"id": "karakorum", "name": "Karakorum", "type": "settlement", "scale": "local", "coord_basis": "wikipedia", "record_count": 2, "records": ["W132", "W133"]}}, {"type": "Feature", "geometry": {"type": "Point", "coordinates": [106.91527778, 47.92194444]}, "properties": {"id": "urga", "name": "Urga (Ulaanbaatar)", "type": "settlement", "scale": "local", "coord_basis": "wikipedia", "record_count": 2, "records": ["W172", "W177"]}}, {"type": "Feature", "geometry": {"type": "Point", "coordinates": [106.45, 50.35]}, "properties": {"id": "kiakhta", "name": "Kyakhta", "type": "settlement", "scale": "local", "coord_basis": "wikipedia", "record_count": 5, "records": ["M034", "W135", "W173", "W177", "W277"]}}, {"type": "Feature", "geometry": {"type": "Point", "coordinates": [119.1, 50.4]}, "properties": {"id": "tsurukhaitu", "name": "Tsurukhaitu", "type": "settlement", "scale": "local", "coord_basis": "approx", "record_count": 1, "records": ["W277"]}}, {"type": "Feature", "geometry": {"type": "Point", "coordinates": [116.55555556, 51.99444444]}, "properties": {"id": "nerchinsk", "name": "Nerchinsk", "type": "settlement", "scale": "local", "coord_basis": "wikipedia", "record_count": 3, "records": ["W123", "W135", "W274"]}}, {"type": "Feature", "geometry": {"type": "Point", "coordinates": [104.28, 52.2892]}, "properties": {"id": "irkutsk", "name": "Irkutsk", "type": "settlement", "scale": "local", "coord_basis": "wikipedia", "record_count": 6, "records": ["M035", "M059", "M101", "W159", "W160", "W283"]}}, {"type": "Feature", "geometry": {"type": "Point", "coordinates": [129.73, 62.03]}, "properties": {"id": "yakutsk", "name": "Yakutsk", "type": "settlement", "scale": "local", "coord_basis": "wikipedia", "record_count": 3, "records": ["M059", "W159", "W160"]}}, {"type": "Feature", "geometry": {"type": "Point", "coordinates": [143.25944444, 59.3675]}, "properties": {"id": "okhotsk", "name": "Okhotsk", "type": "settlement", "scale": "local", "coord_basis": "wikipedia", "record_count": 3, "records": ["W159", "W160", "W284"]}}, {"type": "Feature", "geometry": {"type": "Point", "coordinates": [92.13333333, 58.46666667]}, "properties": {"id": "yeniseisk", "name": "Yeniseysk", "type": "settlement", "scale": "local", "coord_basis": "wikipedia", "record_count": 1, "records": ["M059"]}}, {"type": "Feature", "geometry": {"type": "Point", "coordinates": [84.96666667, 56.5]}, "properties": {"id": "tomsk", "name": "Tomsk", "type": "settlement", "scale": "local", "coord_basis": "wikipedia", "record_count": 4, "records": ["M058", "M059", "M101", "W170"]}}, {"type": "Feature", "geometry": {"type": "Point", "coordinates": [73.36666667, 54.98333333]}, "properties": {"id": "omsk", "name": "Omsk", "type": "settlement", "scale": "local", "coord_basis": "wikipedia", "record_count": 1, "records": ["M058"]}}, {"type": "Feature", "geometry": {"type": "Point", "coordinates": [74.37, 56.9]}, "properties": {"id": "tara", "name": "Tara", "type": "settlement", "scale": "local", "coord_basis": "approx", "record_count": 1, "records": ["W286"]}}, {"type": "Feature", "geometry": {"type": "Point", "coordinates": [68.26666667, 58.2]}, "properties": {"id": "tobolsk", "name": "Tobolsk", "type": "settlement", "scale": "local", "coord_basis": "wikipedia", "record_count": 11, "records": ["M058", "M059", "M099", "W168", "W169", "W171", "W176", "W266", "W274", "W276", "W286"]}}, {"type": "Feature", "geometry": {"type": "Point", "coordinates": [65.53333333, 57.15]}, "properties": {"id": "tyumen", "name": "Tyumen (Chimgi-Tura)", "type": "settlement", "scale": "local", "coord_basis": "wikipedia", "record_count": 1, "records": ["W190"]}}, {"type": "Feature", "geometry": {"type": "Point", "coordinates": [68.5195, 58.14919444]}, "properties": {"id": "kashlyk", "name": "Isker (Kashlyk)", "type": "settlement", "scale": "local", "coord_basis": "wikipedia", "record_count": 1, "records": ["W168"]}}, {"type": "Feature", "geometry": {"type": "Point", "coordinates": [82.570278, 51.313889]}, "properties": {"id": "kolyvan", "name": "Kolyvan works", "type": "settlement", "scale": "local", "coord_basis": "wikipedia", "record_count": 3, "records": ["W286", "W292", "W293"]}}, {"type": "Feature", "geometry": {"type": "Point", "coordinates": [82.2, 51.16666667]}, "properties": {"id": "zmeinogorsk", "name": "Zmeinogorsk", "type": "settlement", "scale": "local", "coord_basis": "wikipedia", "record_count": 1, "records": ["W293"]}}, {"type": "Feature", "geometry": {"type": "Point", "coordinates": [80.26666667, 50.43333333]}, "properties": {"id": "semipalatinsk", "name": "Semipalatinsk", "type": "settlement", "scale": "local", "coord_basis": "wikipedia", "record_count": 1, "records": ["W292"]}}, {"type": "Feature", "geometry": {"type": "Point", "coordinates": [55.1, 51.78333333]}, "properties": {"id": "orenburg", "name": "Orenburg", "type": "settlement", "scale": "local", "coord_basis": "wikipedia", "record_count": 9, "records": ["M101", "W124", "W175", "W181", "W182", "W286", "W287", "W293", "W294"]}}, {"type": "Feature", "geometry": {"type": "Point", "coordinates": [58.56666667, 51.2]}, "properties": {"id": "orsk", "name": "Orsk", "type": "settlement", "scale": "local", "coord_basis": "wikipedia", "record_count": 1, "records": ["W182"]}}, {"type": "Feature", "geometry": {"type": "Point", "coordinates": [51.88333333, 47.11666667]}, "properties": {"id": "guryev", "name": "Guryev (Atyrau)", "type": "settlement", "scale": "local", "coord_basis": "wikipedia", "record_count": 1, "records": ["W287"]}}, {"type": "Feature", "geometry": {"type": "Point", "coordinates": [49.10888889, 55.79638889]}, "properties": {"id": "kazan", "name": "Kazan", "type": "settlement", "scale": "local", "coord_basis": "wikipedia", "record_count": 13, "records": ["M096", "W165", "W166", "W184", "W210", "W213", "W216", "W217", "W231", "W233", "W235", "W236", "W283"]}}, {"type": "Feature", "geometry": {"type": "Point", "coordinates": [48.035, 46.35]}, "properties": {"id": "astrakhan", "name": "Astrakhan", "type": "settlement", "scale": "local", "coord_basis": "wikipedia", "record_count": 13, "records": ["W207", "W210", "W213", "W231", "W233", "W235", "W236", "W249", "W251", "W288", "W290", "W293", "W300"]}}, {"type": "Feature", "geometry": {"type": "Point", "coordinates": [46.035, 51.53]}, "properties": {"id": "saratov", "name": "Saratov", "type": "settlement", "scale": "local", "coord_basis": "wikipedia", "record_count": 1, "records": ["W210"]}}, {"type": "Feature", "geometry": {"type": "Point", "coordinates": [48.36666667, 54.31666667]}, "properties": {"id": "simbirsk", "name": "Simbirsk", "type": "settlement", "scale": "local", "coord_basis": "wikipedia", "record_count": 1, "records": ["W287"]}}, {"type": "Feature", "geometry": {"type": "Point", "coordinates": [44.55, 48.51]}, "properties": {"id": "sarepta", "name": "Sarepta", "type": "settlement", "scale": "local", "coord_basis": "approx", "record_count": 1, "records": ["W290"]}}, {"type": "Feature", "geometry": {"type": "Point", "coordinates": [41.4, 54.93333333]}, "properties": {"id": "kasimov", "name": "Kasimov", "type": "settlement", "scale": "local", "coord_basis": "wikipedia", "record_count": 1, "records": ["W216"]}}, {"type": "Feature", "geometry": {"type": "Point", "coordinates": [47.8, 46.6]}, "properties": {"id": "sarai", "name": "Sarai", "type": "settlement", "scale": "local", "coord_basis": "approx", "record_count": 5, "records": ["W162", "W185", "W206", "W207", "W297"]}}, {"type": "Feature", "geometry": {"type": "Point", "coordinates": [37.61777778, 55.75583333]}, "properties": {"id": "moscow", "name": "Moscow", "type": "settlement", "scale": "local", "coord_basis": "wikipedia", "record_count": 4, "records": ["M024", "W159", "W166", "W186"]}}, {"type": "Feature", "geometry": {"type": "Point", "coordinates": [30.30861111, 59.9375]}, "properties": {"id": "st-petersburg", "name": "St Petersburg", "type": "settlement", "scale": "local", "coord_basis": "wikipedia", "record_count": 3, "records": ["W159", "W160", "W275"]}}, {"type": "Feature", "geometry": {"type": "Point", "coordinates": [31.26666667, 58.55]}, "properties": {"id": "novgorod", "name": "Novgorod", "type": "settlement", "scale": "local", "coord_basis": "wikipedia", "record_count": 1, "records": ["W164"]}}, {"type": "Feature", "geometry": {"type": "Point", "coordinates": [30.52333333, 50.45]}, "properties": {"id": "kiev", "name": "Kiev", "type": "settlement", "scale": "local", "coord_basis": "wikipedia", "record_count": 1, "records": ["W163"]}}, {"type": "Feature", "geometry": {"type": "Point", "coordinates": [40.88, 54.26]}, "properties": {"id": "ryazan", "name": "Ryazan", "type": "settlement", "scale": "local", "coord_basis": "approx", "record_count": 2, "records": ["W162", "W186"]}}, {"type": "Feature", "geometry": {"type": "Point", "coordinates": [40.45, 56.41666667]}, "properties": {"id": "suzdal", "name": "Suzdal", "type": "settlement", "scale": "local", "coord_basis": "wikipedia", "record_count": 2, "records": ["W162", "W164"]}}, {"type": "Feature", "geometry": {"type": "Point", "coordinates": [46.3, 60.76666667]}, "properties": {"id": "veliky-ustyug", "name": "Veliky Ustyug", "type": "settlement", "scale": "local", "coord_basis": "wikipedia", "record_count": 1, "records": ["W274"]}}, {"type": "Feature", "geometry": {"type": "Point", "coordinates": [39.41805556, 47.10833333]}, "properties": {"id": "azov", "name": "Azov (Tana)", "type": "settlement", "scale": "local", "coord_basis": "wikipedia", "record_count": 6, "records": ["W061", "W116", "W210", "W237", "W238", "W300"]}}, {"type": "Feature", "geometry": {"type": "Point", "coordinates": [35.37916667, 45.03416667]}, "properties": {"id": "kaffa", "name": "Kaffa (Feodosia)", "type": "settlement", "scale": "local", "coord_basis": "wikipedia", "record_count": 3, "records": ["W218", "W232", "W237"]}}, {"type": "Feature", "geometry": {"type": "Point", "coordinates": [35.08861111, 45.02916667]}, "properties": {"id": "solkhat", "name": "Solkhat (Staryi Krym)", "type": "settlement", "scale": "local", "coord_basis": "wikipedia", "record_count": 1, "records": ["W218"]}}, {"type": "Feature", "geometry": {"type": "Point", "coordinates": [33.69277778, 46.16166667]}, "properties": {"id": "perekop", "name": "Perekop", "type": "settlement", "scale": "local", "coord_basis": "wikipedia", "record_count": 5, "records": ["W231", "W232", "W235", "W236", "W237"]}}, {"type": "Feature", "geometry": {"type": "Point", "coordinates": [33.86083333, 44.75277778]}, "properties": {"id": "bakhchisaray", "name": "Bakhchisaray", "type": "settlement", "scale": "local", "coord_basis": "wikipedia", "record_count": 1, "records": ["W237"]}}, {"type": "Feature", "geometry": {"type": "Point", "coordinates": [36.47111111, 45.36194444]}, "properties": {"id": "kerch", "name": "Kerch", "type": "settlement", "scale": "local", "coord_basis": "wikipedia", "record_count": 3, "records": ["W232", "W237", "W289"]}}, {"type": "Feature", "geometry": {"type": "Point", "coordinates": [34.9725, 44.85138889]}, "properties": {"id": "sudak", "name": "Sudak", "type": "settlement", "scale": "local", "coord_basis": "wikipedia", "record_count": 1, "records": ["W237"]}}, {"type": "Feature", "geometry": {"type": "Point", "coordinates": [33.49333333, 44.61166667]}, "properties": {"id": "chersonesus", "name": "Chersonesus", "type": "settlement", "scale": "local", "coord_basis": "wikipedia", "record_count": 1, "records": ["W237"]}}, {"type": "Feature", "geometry": {"type": "Point", "coordinates": [33.36805556, 45.19388889]}, "properties": {"id": "gozleve", "name": "Gözleve (Yevpatoria)", "type": "settlement", "scale": "local", "coord_basis": "wikipedia", "record_count": 1, "records": ["W232"]}}, {"type": "Feature", "geometry": {"type": "Point", "coordinates": [46.3, 38.06666667]}, "properties": {"id": "tabriz", "name": "Tabriz", "type": "settlement", "scale": "local", "coord_basis": "wikipedia", "record_count": 3, "records": ["W228", "W240", "W245"]}}, {"type": "Feature", "geometry": {"type": "Point", "coordinates": [48.79444444, 36.43416667]}, "properties": {"id": "sultaniyeh", "name": "Soltaniyeh", "type": "settlement", "scale": "local", "coord_basis": "wikipedia", "record_count": 1, "records": ["W245"]}}, {"type": "Feature", "geometry": {"type": "Point", "coordinates": [50.58611111, 36.44472222]}, "properties": {"id": "alamut", "name": "Alamut", "type": "settlement", "scale": "local", "coord_basis": "wikipedia", "record_count": 1, "records": ["W132"]}}, {"type": "Feature", "geometry": {"type": "Point", "coordinates": [44.36611111, 33.31527778]}, "properties": {"id": "baghdad", "name": "Baghdad", "type": "settlement", "scale": "local", "coord_basis": "wikipedia", "record_count": 3, "records": ["W132", "W228", "W240"]}}, {"type": "Feature", "geometry": {"type": "Point", "coordinates": [43.12916667, 36.34166667]}, "properties": {"id": "mosul", "name": "Mosul", "type": "settlement", "scale": "local", "coord_basis": "wikipedia", "record_count": 1, "records": ["W228"]}}, {"type": "Feature", "geometry": {"type": "Point", "coordinates": [51.3897, 35.6889]}, "properties": {"id": "tehran", "name": "Tehran", "type": "settlement", "scale": "local", "coord_basis": "wikipedia", "record_count": 1, "records": ["W270"]}}, {"type": "Feature", "geometry": {"type": "Point", "coordinates": [62.20305556, 34.34194444]}, "properties": {"id": "herat", "name": "Herat", "type": "settlement", "scale": "local", "coord_basis": "wikipedia", "record_count": 3, "records": ["W075", "W146", "W147"]}}, {"type": "Feature", "geometry": {"type": "Point", "coordinates": [69.17833333, 34.52527778]}, "properties": {"id": "kabul", "name": "Kabul", "type": "settlement", "scale": "local", "coord_basis": "wikipedia", "record_count": 1, "records": ["W074"]}}, {"type": "Feature", "geometry": {"type": "Point", "coordinates": [68.42333333, 33.54916667]}, "properties": {"id": "ghazni", "name": "Ghazni", "type": "settlement", "scale": "local", "coord_basis": "wikipedia", "record_count": 1, "records": ["W199"]}}, {"type": "Feature", "geometry": {"type": "Point", "coordinates": [66.89805556, 36.75805556]}, "properties": {"id": "balkh", "name": "Balkh", "type": "settlement", "scale": "local", "coord_basis": "wikipedia", "record_count": 3, "records": ["W190", "W191", "W192"]}}, {"type": "Feature", "geometry": {"type": "Point", "coordinates": [66.96527778, 39.65055556]}, "properties": {"id": "samarkand", "name": "Samarkand", "type": "settlement", "scale": "local", "coord_basis": "wikipedia", "record_count": 11, "records": ["M046", "M081", "M082", "M118", "W046", "W074", "W132", "W146", "W147", "W192", "W238"]}}, {"type": "Feature", "geometry": {"type": "Point", "coordinates": [64.42305556, 39.76666667]}, "properties": {"id": "bukhara", "name": "Bukhara", "type": "settlement", "scale": "local", "coord_basis": "wikipedia", "record_count": 21, "records": ["M046", "M058", "M061", "M067", "M072", "M073", "M081", "M082", "M088", "W019", "W020", "W024", "W026", "W044", "W075", "W096", "W167", "W175", "W191", "W192", "W294"]}}, {"type": "Feature", "geometry": {"type": "Point", "coordinates": [60.36111111, 41.38138889]}, "properties": {"id": "khiva", "name": "Khiva", "type": "settlement", "scale": "local", "coord_basis": "wikipedia", "record_count": 9, "records": ["M058", "M061", "M067", "M072", "M073", "W022", "W027", "W038", "W175"]}}, {"type": "Feature", "geometry": {"type": "Point", "coordinates": [69.27972222, 41.31111111]}, "properties": {"id": "tashkent", "name": "Tashkent", "type": "settlement", "scale": "local", "coord_basis": "wikipedia", "record_count": 3, "records": ["M011", "M046", "M081"]}}, {"type": "Feature", "geometry": {"type": "Point", "coordinates": [75.24861111, 42.74694444]}, "properties": {"id": "balasaghun", "name": "Balasagun", "type": "settlement", "scale": "local", "coord_basis": "wikipedia", "record_count": 3, "records": ["M095", "W219", "W220"]}}, {"type": "Feature", "geometry": {"type": "Point", "coordinates": [71.36666667, 42.9]}, "properties": {"id": "talas", "name": "Talas (Taraz)", "type": "settlement", "scale": "local", "coord_basis": "wikipedia", "record_count": 1, "records": ["M095"]}}, {"type": "Feature", "geometry": {"type": "Point", "coordinates": [69.76666667, 42.3]}, "properties": {"id": "ispijab", "name": "Isfijab (Sayram)", "type": "settlement", "scale": "local", "coord_basis": "wikipedia", "record_count": 1, "records": ["M095"]}}, {"type": "Feature", "geometry": {"type": "Point", "coordinates": [75.9938, 39.4681]}, "properties": {"id": "kashgar", "name": "Kashgar", "type": "settlement", "scale": "local", "coord_basis": "wikipedia", "record_count": 13, "records": ["M088", "M095", "W045", "W096", "W117", "W126", "W179", "W190", "W193", "W194", "W219", "W220", "W272"]}}, {"type": "Feature", "geometry": {"type": "Point", "coordinates": [77.2232, 38.3909]}, "properties": {"id": "yarkand", "name": "Yarkand", "type": "settlement", "scale": "local", "coord_basis": "wikipedia", "record_count": 6, "records": ["M088", "W096", "W126", "W179", "W193", "W194"]}}, {"type": "Feature", "geometry": {"type": "Point", "coordinates": [79.91666667, 37.11666667]}, "properties": {"id": "khotan", "name": "Khotan", "type": "settlement", "scale": "local", "coord_basis": "wikipedia", "record_count": 3, "records": ["W087", "W126", "W179"]}}, {"type": "Feature", "geometry": {"type": "Point", "coordinates": [80.2904, 41.185]}, "properties": {"id": "aksu", "name": "Aksu", "type": "settlement", "scale": "local", "coord_basis": "wikipedia", "record_count": 4, "records": ["W126", "W179", "W193", "W194"]}}, {"type": "Feature", "geometry": {"type": "Point", "coordinates": [89.1895, 42.9512]}, "properties": {"id": "turfan", "name": "Turfan", "type": "settlement", "scale": "local", "coord_basis": "wikipedia", "record_count": 7, "records": ["M118", "W126", "W146", "W147", "W179", "W193", "W194"]}}, {"type": "Feature", "geometry": {"type": "Point", "coordinates": [93.5151, 42.8193]}, "properties": {"id": "hami", "name": "Hami (Kumul)", "type": "settlement", "scale": "local", "coord_basis": "wikipedia", "record_count": 4, "records": ["M108", "W146", "W147", "W272"]}}, {"type": "Feature", "geometry": {"type": "Point", "coordinates": [82.7, 37.9]}, "properties": {"id": "niya", "name": "Niya", "type": "settlement", "scale": "local", "coord_basis": "approx", "record_count": 1, "records": ["W105"]}}, {"type": "Feature", "geometry": {"type": "Point", "coordinates": [56.46, 27.0675]}, "properties": {"id": "hormuz", "name": "Hormuz", "type": "settlement", "scale": "local", "coord_basis": "wikipedia", "record_count": 1, "records": ["W243"]}}, {"type": "Feature", "geometry": {"type": "Point", "coordinates": [72.97222222, 19.19722222]}, "properties": {"id": "thana", "name": "Thana", "type": "settlement", "scale": "local", "coord_basis": "wikipedia", "record_count": 1, "records": ["W245"]}}, {"type": "Feature", "geometry": {"type": "Point", "coordinates": [76.61411111, 8.89319444]}, "properties": {"id": "quilon", "name": "Quilon", "type": "settlement", "scale": "local", "coord_basis": "wikipedia", "record_count": 1, "records": ["W245"]}}, {"type": "Feature", "geometry": {"type": "Point", "coordinates": [35.22555556, 31.77888889]}, "properties": {"id": "jerusalem", "name": "Jerusalem", "type": "settlement", "scale": "local", "coord_basis": "wikipedia", "record_count": 1, "records": ["M032"]}}, {"type": "Feature", "geometry": {"type": "Point", "coordinates": [12.48277778, 41.89333333]}, "properties": {"id": "rome", "name": "Rome", "type": "settlement", "scale": "local", "coord_basis": "wikipedia", "record_count": 1, "records": ["W262"]}}, {"type": "Feature", "geometry": {"type": "Point", "coordinates": [16.3725, 48.2083]}, "properties": {"id": "vienna", "name": "Vienna", "type": "settlement", "scale": "local", "coord_basis": "wikipedia", "record_count": 1, "records": ["W210"]}}, {"type": "Feature", "geometry": {"type": "Point", "coordinates": [19.1, 47.5]}, "properties": {"id": "pest", "name": "Pest", "type": "settlement", "scale": "local", "coord_basis": "wikipedia", "record_count": 1, "records": ["W226"]}}, {"type": "Feature", "geometry": {"type": "Point", "coordinates": [18.74027778, 47.78555556]}, "properties": {"id": "esztergom", "name": "Esztergom", "type": "settlement", "scale": "local", "coord_basis": "wikipedia", "record_count": 1, "records": ["W226"]}}, {"type": "Feature", "geometry": {"type": "Point", "coordinates": [21.92111111, 47.07222222]}, "properties": {"id": "oradea", "name": "Várad (Oradea)", "type": "settlement", "scale": "local", "coord_basis": "wikipedia", "record_count": 1, "records": ["W226"]}}, {"type": "Feature", "geometry": {"type": "Point", "coordinates": [16.44, 43.51]}, "properties": {"id": "split", "name": "Split", "type": "settlement", "scale": "local", "coord_basis": "wikipedia", "record_count": 1, "records": ["W227"]}}, {"type": "Feature", "geometry": {"type": "Point", "coordinates": [16.25136389, 43.51690278]}, "properties": {"id": "trogir", "name": "Trogir", "type": "settlement", "scale": "local", "coord_basis": "wikipedia", "record_count": 1, "records": ["W227"]}}, {"type": "Feature", "geometry": {"type": "Point", "coordinates": [16.52388889, 43.56]}, "properties": {"id": "klis", "name": "Klis", "type": "settlement", "scale": "local", "coord_basis": "wikipedia", "record_count": 1, "records": ["W227"]}}, {"type": "Feature", "geometry": {"type": "Point", "coordinates": [25.15, 49.66666667]}, "properties": {"id": "zboriv", "name": "Zboriv", "type": "settlement", "scale": "local", "coord_basis": "wikipedia", "record_count": 1, "records": ["W214"]}}, {"type": "Feature", "geometry": {"type": "Point", "coordinates": [25.77777778, 49.66666667]}, "properties": {"id": "zbarazh", "name": "Zbarazh", "type": "settlement", "scale": "local", "coord_basis": "wikipedia", "record_count": 1, "records": ["W214"]}}, {"type": "Feature", "geometry": {"type": "Point", "coordinates": [18.64527778, 54.3475]}, "properties": {"id": "gdansk", "name": "Danzig (Gdańsk)", "type": "settlement", "scale": "local", "coord_basis": "wikipedia", "record_count": 1, "records": ["W093"]}}, {"type": "Feature", "geometry": {"type": "Point", "coordinates": [46, 23]}, "properties": {"id": "arabia", "name": "Arabia", "type": "region", "scale": "regional", "coord_basis": "wikipedia", "record_count": 1, "records": ["M119"]}}, {"type": "Feature", "geometry": {"type": "Point", "coordinates": [94.75, 51.78333333]}, "properties": {"id": "tuva", "name": "Tuva", "type": "region", "scale": "regional", "coord_basis": "wikipedia", "record_count": 1, "records": ["W221"]}}, {"type": "Feature", "geometry": {"type": "Point", "coordinates": [90, 53.5]}, "properties": {"id": "khakassia", "name": "Khakassia", "type": "region", "scale": "regional", "coord_basis": "wikipedia", "record_count": 1, "records": ["W221"]}}, {"type": "Feature", "geometry": {"type": "Point", "coordinates": [119.38, 43.95]}, "properties": {"id": "liao", "name": "Khitan (Liao)", "type": "polity", "scale": "regional", "coord_basis": "capital", "record_count": 1, "records": ["M104"]}}, {"type": "Feature", "geometry": {"type": "Point", "coordinates": [115.5, 38.5]}, "properties": {"id": "zhili", "name": "Zhili", "type": "region", "scale": "regional", "coord_basis": "approx", "record_count": 1, "records": ["M107"]}}, {"type": "Feature", "geometry": {"type": "Point", "coordinates": [118.4, 36.4]}, "properties": {"id": "shandong", "name": "Shandong", "type": "region", "scale": "regional", "coord_basis": "wikipedia", "record_count": 1, "records": ["M107"]}}, {"type": "Feature", "geometry": {"type": "Point", "coordinates": [112.4, 37.7]}, "properties": {"id": "shanxi", "name": "Shanxi", "type": "region", "scale": "regional", "coord_basis": "wikipedia", "record_count": 1, "records": ["M107"]}}, {"type": "Feature", "geometry": {"type": "Point", "coordinates": [118.8, 32.0]}, "properties": {"id": "jiangnan", "name": "Jiangnan", "type": "region", "scale": "regional", "coord_basis": "approx", "record_count": 1, "records": ["M107"]}}, {"type": "Feature", "geometry": {"type": "Point", "coordinates": [116, 27.3]}, "properties": {"id": "jiangxi", "name": "Jiangxi", "type": "region", "scale": "regional", "coord_basis": "wikipedia", "record_count": 1, "records": ["M107"]}}, {"type": "Feature", "geometry": {"type": "Point", "coordinates": [120.5, 29.2]}, "properties": {"id": "zhejiang", "name": "Zhejiang", "type": "region", "scale": "regional", "coord_basis": "wikipedia", "record_count": 1, "records": ["M107"]}}, {"type": "Feature", "geometry": {"type": "Point", "coordinates": [113.5, 34.0]}, "properties": {"id": "henan", "name": "Henan", "type": "region", "scale": "regional", "coord_basis": "approx", "record_count": 1, "records": ["M107"]}}, {"type": "Feature", "geometry": {"type": "Point", "coordinates": [112.5, 29.5]}, "properties": {"id": "huguang", "name": "Huguang", "type": "region", "scale": "regional", "coord_basis": "approx", "record_count": 1, "records": ["M107"]}}, {"type": "Feature", "geometry": {"type": "Point", "coordinates": [108.3, 23.6]}, "properties": {"id": "guangxi", "name": "Guangxi", "type": "region", "scale": "regional", "coord_basis": "wikipedia", "record_count": 1, "records": ["M107"]}}, {"type": "Feature", "geometry": {"type": "Point", "coordinates": [103.0, 30.5]}, "properties": {"id": "sichuan", "name": "Sichuan", "type": "region", "scale": "regional", "coord_basis": "approx", "record_count": 1, "records": ["M107"]}}, {"type": "Feature", "geometry": {"type": "Point", "coordinates": [106.83333333, 26.83333333]}, "properties": {"id": "guizhou", "name": "Guizhou", "type": "region", "scale": "regional", "coord_basis": "wikipedia", "record_count": 1, "records": ["M107"]}}]}